{"type": "FeatureCollection", "features": [{"type": "Feature", "properties": {"district": "Bentong"}, "geometry": {"type": "MultiPolygon", "coordinates": [[[[101.8756, 3.6943], [101.8754, 3.6893], [101.8795, 3.6879], [101.8803, 3.6839], [101.8813, 3.6833], [101.8819, 3.6849], [101.8843, 3.6808], [101.8847, 3.6825], [101.8867, 3.6818], [101.8908, 3.6711], [101.8961, 3.6633], [101.9013, 3.6647], [101.9026, 3.6676], [101.9074, 3.6659], [101.9099, 3.6619], [101.9136, 3.6627], [101.9157, 3.6609], [101.9258, 3.6652], [101.9328, 3.6581], [101.9367, 3.6581], [101.9386, 3.6564], [101.9375, 3.6487], [101.9401, 3.646], [101.939, 3.6416], [101.9427, 3.6397], [101.9461, 3.6336], [101.9459, 3.6292], [101.9439, 3.6274], [101.945, 3.6251], [101.9437, 3.6195], [101.947, 3.6199], [101.9459, 3.6177], [101.9497, 3.6051], [101.9544, 3.5989], [101.9533, 3.5951], [101.9642, 3.5884], [101.9626, 3.585], [101.9645, 3.5814], [101.9704, 3.5798], [101.9705, 3.5771], [101.9752, 3.5737], [101.9753, 3.572], [101.9698, 3.5695], [101.9764, 3.5593], [101.9806, 3.56], [101.9835, 3.5619], [101.9832, 3.5643], [101.9858, 3.5649], [101.9846, 3.5709], [101.9897, 3.57], [101.9919, 3.567], [102.0009, 3.5702], [102.0077, 3.5619], [102.0137, 3.5597], [102.0188, 3.5524], [102.0197, 3.5625], [102.0214, 3.5657], [102.0237, 3.5651], [102.0253, 3.5666], [102.036, 3.5448], [102.0405, 3.5413], [102.0402, 3.5348], [102.0441, 3.5362], [102.052, 3.5225], [102.0595, 3.5142], [102.0608, 3.51], [102.0564, 3.5039], [102.0588, 3.499], [102.063, 3.4972], [102.0846, 3.4969], [102.0858, 3.4961], [102.0862, 3.488], [102.0926, 3.4901], [102.105, 3.4791], [102.1048, 3.4541], [102.1073, 3.4517], [102.103, 3.4456], [102.1014, 3.4392], [102.1033, 3.4357], [102.1032, 3.4306], [102.0966, 3.4254], [102.0952, 3.4224], [102.098, 3.4101], [102.0962, 3.4076], [102.0979, 3.4014], [102.0965, 3.3977], [102.0994, 3.3863], [102.1078, 3.3828], [102.1066, 3.3791], [102.1073, 3.3757], [102.1094, 3.3743], [102.1101, 3.3652], [102.1133, 3.3635], [102.1134, 3.3587], [102.1178, 3.3516], [102.1187, 3.3455], [102.1265, 3.3532], [102.1318, 3.3529], [102.1353, 3.3476], [102.1407, 3.3533], [102.1405, 3.3575], [102.144, 3.3582], [102.1483, 3.3633], [102.1664, 3.3629], [102.1691, 3.3686], [102.1788, 3.3699], [102.1854, 3.3746], [102.1877, 3.3728], [102.1908, 3.3732], [102.1957, 3.3774], [102.2008, 3.3733], [102.2037, 3.3741], [102.2058, 3.377], [102.2107, 3.3761], [102.2184, 3.3868], [102.2266, 3.3874], [102.228, 3.3923], [102.2314, 3.3909], [102.2363, 3.3926], [102.2394, 3.3897], [102.2442, 3.3775], [102.2524, 3.3792], [102.2595, 3.3768], [102.2618, 3.3708], [102.2723, 3.3652], [102.274, 3.3647], [102.2774, 3.3682], [102.2826, 3.3645], [102.2872, 3.3648], [102.2918, 3.3602], [102.3024, 3.3635], [102.3058, 3.3566], [102.3148, 3.3561], [102.3177, 3.3519], [102.3202, 3.3511], [102.3227, 3.338], [102.3287, 3.3275], [102.3326, 3.3279], [102.333, 3.3244], [102.335, 3.3224], [102.3403, 3.3252], [102.3435, 3.3221], [102.3379, 3.3176], [102.331, 3.3159], [102.3287, 3.3109], [102.3243, 3.3078], [102.3227, 3.3015], [102.3207, 3.3011], [102.32, 3.2983], [102.3158, 3.2951], [102.3036, 3.2928], [102.3032, 3.2868], [102.3065, 3.2799], [102.306, 3.2719], [102.2976, 3.2661], [102.2912, 3.2552], [102.2987, 3.2476], [102.297, 3.2403], [102.2918, 3.2367], [102.2912, 3.2331], [102.2981, 3.2174], [102.2934, 3.2085], [102.2786, 3.2], [102.2784, 3.1956], [102.2733, 3.191], [102.2743, 3.1885], [102.2796, 3.1882], [102.2827, 3.1899], [102.2845, 3.189], [102.2886, 3.1775], [102.294, 3.1726], [102.3078, 3.1709], [102.3131, 3.1721], [102.3085, 3.1664], [102.3142, 3.1582], [102.3135, 3.1564], [102.3037, 3.1527], [102.301, 3.146], [102.2968, 3.1417], [102.2941, 3.1416], [102.2925, 3.1374], [102.159, 3.1791], [102.1552, 3.1844], [102.1515, 3.1856], [102.1507, 3.1898], [102.1418, 3.1984], [102.1275, 3.1942], [102.1219, 3.1997], [102.1153, 3.1986], [102.1153, 3.1907], [102.1131, 3.189], [102.1069, 3.193], [102.0967, 3.1927], [102.0843, 3.1826], [102.0805, 3.1832], [102.0777, 3.1811], [102.0752, 3.1757], [102.0745, 3.1669], [102.0693, 3.172], [102.0611, 3.1673], [102.0579, 3.1682], [102.0548, 3.1726], [102.0557, 3.1804], [102.0522, 3.1856], [102.0514, 3.1907], [102.0549, 3.1978], [102.0518, 3.2025], [102.0508, 3.2123], [102.0443, 3.2263], [102.039, 3.2287], [102.0322, 3.2283], [102.0279, 3.2316], [102.0231, 3.2301], [102.0189, 3.2308], [102.0129, 3.2275], [102.0093, 3.2273], [102.0006, 3.2312], [101.9927, 3.2383], [101.9853, 3.2376], [101.9746, 3.2459], [101.9775, 3.2496], [101.9778, 3.254], [101.9736, 3.2626], [101.9725, 3.2739], [101.9655, 3.276], [101.9565, 3.2734], [101.9504, 3.2834], [101.9393, 3.2902], [101.9359, 3.2863], [101.933, 3.2754], [101.9274, 3.2701], [101.923, 3.2691], [101.9173, 3.2634], [101.9127, 3.2645], [101.9084, 3.2633], [101.9058, 3.268], [101.8963, 3.2709], [101.892, 3.2707], [101.8887, 3.2666], [101.8836, 3.2657], [101.8753, 3.2711], [101.8737, 3.2748], [101.8578, 3.2755], [101.8529, 3.2798], [101.8528, 3.2829], [101.8456, 3.2912], [101.8381, 3.2916], [101.8239, 3.2994], [101.8208, 3.3041], [101.8115, 3.3124], [101.8058, 3.3201], [101.8065, 3.3249], [101.8006, 3.3282], [101.7965, 3.3361], [101.7869, 3.339], [101.7807, 3.3431], [101.7794, 3.3465], [101.7811, 3.3534], [101.7785, 3.3606], [101.7696, 3.3654], [101.7571, 3.3752], [101.7638, 3.3867], [101.7622, 3.3999], [101.7701, 3.4027], [101.7778, 3.4093], [101.7802, 3.4154], [101.7876, 3.4217], [101.7899, 3.426], [101.7833, 3.432], [101.781, 3.445], [101.7768, 3.4539], [101.7731, 3.47], [101.7653, 3.4791], [101.7634, 3.4904], [101.7602, 3.4948], [101.7607, 3.5083], [101.764, 3.514], [101.7688, 3.5182], [101.7798, 3.5433], [101.7863, 3.5482], [101.7897, 3.5476], [101.8039, 3.5532], [101.8078, 3.5741], [101.8064, 3.5784], [101.8072, 3.5869], [101.8103, 3.5945], [101.8134, 3.5978], [101.8142, 3.606], [101.8096, 3.6083], [101.8077, 3.6125], [101.8042, 3.6149], [101.8083, 3.6159], [101.8095, 3.6196], [101.8128, 3.6215], [101.8205, 3.6202], [101.8213, 3.6213], [101.8196, 3.6236], [101.8233, 3.6312], [101.8369, 3.6402], [101.8386, 3.641], [101.8426, 3.6374], [101.8459, 3.6379], [101.8526, 3.6356], [101.8673, 3.6431], [101.8811, 3.653], [101.8754, 3.6623], [101.8738, 3.6681], [101.8661, 3.6781], [101.8629, 3.6914], [101.8747, 3.6953], [101.8756, 3.6943]]]]}}, {"type": "Feature", "properties": {"district": "Cameron Highlands"}, "geometry": {"type": "MultiPolygon", "coordinates": [[[[101.4148, 4.6113], [101.4169, 4.6091], [101.4258, 4.6068], [101.4328, 4.5958], [101.4392, 4.5908], [101.444, 4.5893], [101.4478, 4.5778], [101.4523, 4.5754], [101.4607, 4.5748], [101.465, 4.5774], [101.4701, 4.5738], [101.4773, 4.5763], [101.4762, 4.5833], [101.478, 4.594], [101.4807, 4.6009], [101.4834, 4.6034], [101.4901, 4.6003], [101.4956, 4.6027], [101.5016, 4.6139], [101.5072, 4.6078], [101.5093, 4.6091], [101.5167, 4.6084], [101.5199, 4.6133], [101.5222, 4.6124], [101.5246, 4.607], [101.5336, 4.6043], [101.5441, 4.594], [101.5461, 4.5845], [101.5503, 4.5773], [101.5537, 4.5764], [101.5591, 4.5791], [101.5657, 4.5782], [101.5746, 4.5709], [101.5743, 4.5678], [101.5776, 4.5647], [101.5856, 4.562], [101.5853, 4.5569], [101.5898, 4.5524], [101.5877, 4.5466], [101.591, 4.5391], [101.5923, 4.5253], [101.5883, 4.5193], [101.5836, 4.5016], [101.5834, 4.493], [101.5868, 4.4893], [101.5902, 4.4744], [101.5936, 4.4714], [101.5902, 4.4694], [101.5922, 4.4655], [101.5889, 4.4626], [101.5892, 4.4541], [101.5956, 4.4551], [101.5961, 4.452], [101.6035, 4.447], [101.6043, 4.444], [101.6016, 4.441], [101.6014, 4.4331], [101.6062, 4.4243], [101.6036, 4.418], [101.6075, 4.4117], [101.6059, 4.4065], [101.6017, 4.4043], [101.6006, 4.4002], [101.5924, 4.3891], [101.5926, 4.3802], [101.5898, 4.378], [101.5853, 4.3659], [101.585, 4.3621], [101.5875, 4.359], [101.5845, 4.3542], [101.5775, 4.3549], [101.5634, 4.3617], [101.5563, 4.3583], [101.5559, 4.3518], [101.553, 4.3487], [101.5481, 4.3456], [101.5373, 4.3435], [101.5352, 4.3405], [101.5254, 4.3358], [101.5192, 4.3298], [101.5104, 4.3312], [101.5056, 4.3341], [101.4978, 4.3293], [101.494, 4.3288], [101.4886, 4.3198], [101.4842, 4.3239], [101.474, 4.3268], [101.4591, 4.3185], [101.4523, 4.3208], [101.4432, 4.3196], [101.4417, 4.3303], [101.4312, 4.3367], [101.4235, 4.3389], [101.4203, 4.343], [101.4221, 4.3475], [101.4279, 4.3496], [101.4326, 4.3546], [101.4317, 4.3584], [101.4339, 4.3611], [101.4342, 4.3658], [101.437, 4.3722], [101.4391, 4.375], [101.443, 4.3765], [101.4376, 4.3837], [101.4367, 4.3893], [101.4186, 4.3919], [101.4098, 4.3899], [101.4074, 4.3914], [101.407, 4.3947], [101.4001, 4.4012], [101.3958, 4.4013], [101.3906, 4.4076], [101.3864, 4.4056], [101.3806, 4.4065], [101.3697, 4.403], [101.3665, 4.3975], [101.3574, 4.3947], [101.3542, 4.4023], [101.3551, 4.4064], [101.3492, 4.4089], [101.3481, 4.4111], [101.3527, 4.4187], [101.3518, 4.4257], [101.3403, 4.4321], [101.3328, 4.4298], [101.3306, 4.4319], [101.3307, 4.4458], [101.3323, 4.4469], [101.335, 4.4457], [101.3355, 4.4488], [101.338, 4.4512], [101.3461, 4.4527], [101.3527, 4.4593], [101.3562, 4.4761], [101.3658, 4.4851], [101.3586, 4.4954], [101.3675, 4.498], [101.3756, 4.4978], [101.3802, 4.5039], [101.3844, 4.506], [101.3825, 4.5173], [101.3795, 4.5241], [101.3716, 4.5288], [101.365, 4.5288], [101.3573, 4.5398], [101.357, 4.5447], [101.354, 4.5483], [101.3527, 4.5535], [101.3548, 4.5634], [101.3544, 4.5739], [101.3486, 4.5922], [101.3551, 4.594], [101.3605, 4.6006], [101.3647, 4.6031], [101.3659, 4.6071], [101.3714, 4.6089], [101.3734, 4.6138], [101.3844, 4.6105], [101.3978, 4.6148], [101.4016, 4.6188], [101.4074, 4.6153], [101.4135, 4.6147], [101.4148, 4.6113]]]]}}, {"type": "Feature", "properties": {"district": "Jerantut"}, "geometry": {"type": "MultiPolygon", "coordinates": [[[[102.2109, 3.8575], [102.2143, 3.8498], [102.2131, 3.8346], [102.197, 3.8323], [102.1967, 3.8564], [102.1986, 3.8591], [102.2036, 3.8599], [102.2054, 3.8626], [102.2048, 3.8647], [102.199, 3.8678], [102.1934, 3.8639], [102.191, 3.8595], [102.1852, 3.8594], [102.1828, 3.8619], [102.1779, 3.8572], [102.1682, 3.8593], [102.1644, 3.857], [102.161, 3.8573], [102.1573, 3.854], [102.1496, 3.8534], [102.1462, 3.8488], [102.1401, 3.8457], [102.1344, 3.8482], [102.1258, 3.8471], [102.1223, 3.8445], [102.1214, 3.8396], [102.1166, 3.8345], [102.1087, 3.8335], [102.1018, 3.8395], [102.0926, 3.8397], [102.0896, 3.8427], [102.0831, 3.8444], [102.0818, 3.8471], [102.0757, 3.8517], [102.0798, 3.8543], [102.0803, 3.8594], [102.0839, 3.8618], [102.0854, 3.8723], [102.0904, 3.8762], [102.0881, 3.8829], [102.0907, 3.8878], [102.0909, 3.8957], [102.0938, 3.9053], [102.0969, 3.9105], [102.0848, 3.9179], [102.0809, 3.9227], [102.0817, 3.9262], [102.079, 3.9264], [102.0763, 3.9289], [102.0787, 3.9324], [102.0776, 3.9347], [102.0696, 3.9396], [102.0644, 3.9462], [102.0659, 3.9516], [102.0616, 3.9613], [102.062, 3.9726], [102.0665, 3.9749], [102.0691, 3.9724], [102.0713, 3.973], [102.0779, 3.9699], [102.0897, 3.9765], [102.0946, 3.9748], [102.1012, 3.9792], [102.1062, 3.9796], [102.1097, 3.9816], [102.1121, 3.9886], [102.1144, 3.99], [102.1134, 3.9931], [102.1185, 3.9996], [102.1252, 4.0008], [102.1284, 4.003], [102.1271, 4.013], [102.1255, 4.0116], [102.1198, 4.0139], [102.1191, 4.0191], [102.1113, 4.0187], [102.1069, 4.0224], [102.1002, 4.0248], [102.098, 4.0287], [102.0979, 4.0323], [102.0907, 4.0383], [102.0905, 4.0405], [102.0943, 4.0463], [102.0937, 4.0545], [102.0966, 4.0616], [102.0937, 4.0658], [102.0924, 4.0717], [102.0961, 4.0773], [102.102, 4.0788], [102.1064, 4.0755], [102.11, 4.0785], [102.117, 4.0793], [102.1325, 4.0741], [102.1496, 4.0639], [102.1523, 4.0591], [102.153, 4.0481], [102.1572, 4.042], [102.1619, 4.0406], [102.1688, 4.0358], [102.1944, 4.0376], [102.1999, 4.0325], [102.2051, 4.0324], [102.207, 4.0329], [102.2095, 4.0388], [102.2127, 4.0412], [102.2164, 4.0387], [102.2179, 4.041], [102.2204, 4.0408], [102.2265, 4.0352], [102.2329, 4.0342], [102.2358, 4.0395], [102.2361, 4.0457], [102.2396, 4.0513], [102.2481, 4.0536], [102.253, 4.0461], [102.2557, 4.046], [102.2586, 4.0585], [102.2613, 4.0615], [102.2651, 4.0622], [102.2677, 4.0601], [102.2712, 4.0621], [102.2746, 4.0611], [102.277, 4.0584], [102.2795, 4.0591], [102.2822, 4.0556], [102.2819, 4.0526], [102.2844, 4.0524], [102.2948, 4.0663], [102.2977, 4.0668], [102.2974, 4.0726], [102.3058, 4.0697], [102.3069, 4.0706], [102.3075, 4.0728], [102.3047, 4.0805], [102.3154, 4.0943], [102.3156, 4.0971], [102.3136, 4.0991], [102.3049, 4.0995], [102.295, 4.1124], [102.2954, 4.1148], [102.2933, 4.1175], [102.2796, 4.1179], [102.2712, 4.113], [102.2635, 4.1136], [102.259, 4.1203], [102.2553, 4.1186], [102.253, 4.1197], [102.2509, 4.1268], [102.2522, 4.1319], [102.2497, 4.1335], [102.2485, 4.1371], [102.2472, 4.1364], [102.2472, 4.1413], [102.2523, 4.1434], [102.2552, 4.1469], [102.2541, 4.153], [102.2583, 4.1629], [102.2598, 4.1622], [102.2616, 4.1649], [102.2637, 4.1651], [102.2682, 4.1735], [102.268, 4.18], [102.2704, 4.1845], [102.2693, 4.1896], [102.2724, 4.1941], [102.2694, 4.201], [102.2723, 4.2067], [102.2659, 4.2114], [102.2632, 4.2202], [102.2578, 4.2285], [102.2566, 4.2331], [102.2501, 4.2358], [102.2464, 4.2406], [102.2472, 4.2487], [102.2499, 4.2533], [102.2496, 4.2588], [102.2464, 4.2662], [102.2405, 4.2743], [102.2377, 4.2738], [102.236, 4.2756], [102.2337, 4.2808], [102.2337, 4.2833], [102.2381, 4.2843], [102.2414, 4.2886], [102.2406, 4.2921], [102.2357, 4.2948], [102.2301, 4.303], [102.2305, 4.3089], [102.2365, 4.3165], [102.2364, 4.3186], [102.2315, 4.3217], [102.2335, 4.3316], [102.2281, 4.333], [102.2208, 4.3291], [102.2175, 4.3301], [102.2147, 4.3367], [102.2161, 4.3407], [102.2185, 4.3398], [102.2219, 4.3435], [102.2216, 4.3489], [102.2247, 4.3539], [102.2212, 4.3602], [102.2196, 4.3669], [102.218, 4.3683], [102.2143, 4.3676], [102.2131, 4.3694], [102.2093, 4.3816], [102.2112, 4.3817], [102.2105, 4.3877], [102.2142, 4.3945], [102.217, 4.3966], [102.22, 4.3963], [102.2201, 4.3994], [102.2165, 4.4043], [102.2173, 4.4078], [102.2141, 4.4129], [102.2144, 4.4167], [102.2219, 4.4236], [102.228, 4.42], [102.2329, 4.4203], [102.2349, 4.4232], [102.2332, 4.4289], [102.2365, 4.4327], [102.2417, 4.4323], [102.2445, 4.4338], [102.2476, 4.4319], [102.2575, 4.4335], [102.2557, 4.4379], [102.2482, 4.4424], [102.2482, 4.4449], [102.2452, 4.4482], [102.2462, 4.4502], [102.2415, 4.452], [102.2401, 4.456], [102.2434, 4.4598], [102.2397, 4.4636], [102.2447, 4.4707], [102.2449, 4.4804], [102.2491, 4.4957], [102.2515, 4.4973], [102.2505, 4.5034], [102.253, 4.5082], [102.2537, 4.5168], [102.2558, 4.5163], [102.2609, 4.5199], [102.2547, 4.5291], [102.2452, 4.5365], [102.2404, 4.5479], [102.2268, 4.564], [102.2155, 4.5939], [102.2182, 4.6114], [102.2219, 4.6186], [102.2228, 4.6244], [102.2273, 4.6315], [102.2335, 4.633], [102.2299, 4.6468], [102.2327, 4.6515], [102.2346, 4.6505], [102.2402, 4.6516], [102.2492, 4.6564], [102.2626, 4.6574], [102.2713, 4.6628], [102.2865, 4.6553], [102.2985, 4.6464], [102.3081, 4.6415], [102.3142, 4.6401], [102.3166, 4.6371], [102.3227, 4.6387], [102.3342, 4.6361], [102.3385, 4.6418], [102.3402, 4.6391], [102.3449, 4.6398], [102.346, 4.6425], [102.3441, 4.6463], [102.3481, 4.6544], [102.3648, 4.6674], [102.3672, 4.6761], [102.3724, 4.6807], [102.373, 4.69], [102.3631, 4.6958], [102.3621, 4.6997], [102.3674, 4.708], [102.3768, 4.7092], [102.3806, 4.7123], [102.3979, 4.712], [102.4032, 4.7105], [102.4095, 4.7153], [102.4209, 4.7134], [102.429, 4.7097], [102.4367, 4.7116], [102.449, 4.7118], [102.4602, 4.7042], [102.4579, 4.6997], [102.4821, 4.685], [102.5022, 4.6675], [102.5058, 4.669], [102.5129, 4.6673], [102.5192, 4.6741], [102.5285, 4.676], [102.5306, 4.6828], [102.5363, 4.686], [102.5426, 4.6936], [102.5461, 4.707], [102.549, 4.7095], [102.5528, 4.7088], [102.5708, 4.6904], [102.5826, 4.6952], [102.5897, 4.6893], [102.5923, 4.6894], [102.5965, 4.6862], [102.6037, 4.6871], [102.6031, 4.6952], [102.6056, 4.6999], [102.6025, 4.7161], [102.6023, 4.7271], [102.6, 4.7331], [102.5957, 4.7378], [102.5993, 4.7408], [102.5981, 4.7445], [102.6004, 4.7471], [102.6012, 4.7517], [102.6059, 4.7543], [102.6049, 4.7617], [102.6008, 4.7679], [102.6076, 4.7723], [102.609, 4.7769], [102.6114, 4.7791], [102.6289, 4.7711], [102.6354, 4.7642], [102.6459, 4.7608], [102.6512, 4.761], [102.6625, 4.7549], [102.6616, 4.7464], [102.6678, 4.7367], [102.6749, 4.7305], [102.6831, 4.7149], [102.6914, 4.7129], [102.6991, 4.7154], [102.7088, 4.7049], [102.7138, 4.6949], [102.7199, 4.6942], [102.732, 4.6838], [102.7443, 4.6882], [102.7463, 4.6843], [102.7622, 4.6748], [102.7672, 4.6729], [102.7715, 4.677], [102.777, 4.6704], [102.7902, 4.6765], [102.8064, 4.6771], [102.8231, 4.6821], [102.8301, 4.6802], [102.8408, 4.68], [102.8415, 4.6711], [102.849, 4.6679], [102.8564, 4.658], [102.8613, 4.6564], [102.8613, 4.6522], [102.868, 4.6451], [102.8705, 4.6372], [102.8656, 4.628], [102.8758, 4.6189], [102.8823, 4.6088], [102.8782, 4.6052], [102.8611, 4.6041], [102.8589, 4.6014], [102.8593, 4.5964], [102.8699, 4.5888], [102.8726, 4.5817], [102.868, 4.5765], [102.8687, 4.5714], [102.8651, 4.5618], [102.8601, 4.5606], [102.8523, 4.5629], [102.8432, 4.5586], [102.84, 4.5591], [102.8382, 4.5567], [102.8403, 4.5529], [102.8376, 4.5328], [102.8409, 4.5303], [102.8478, 4.5187], [102.8461, 4.5033], [102.8474, 4.4977], [102.8486, 4.4965], [102.8514, 4.497], [102.8519, 4.493], [102.857, 4.4944], [102.865, 4.4871], [102.8707, 4.486], [102.8755, 4.4828], [102.8745, 4.4697], [102.8798, 4.4639], [102.8907, 4.4698], [102.8998, 4.4665], [102.9129, 4.4698], [102.915, 4.4636], [102.9188, 4.4676], [102.9298, 4.4681], [102.9347, 4.464], [102.9373, 4.4592], [102.9424, 4.4559], [102.944, 4.451], [102.9512, 4.4519], [102.9562, 4.4556], [102.9571, 4.4569], [102.954, 4.4686], [102.9571, 4.4727], [102.9628, 4.4714], [102.966, 4.4735], [102.9695, 4.4776], [102.9692, 4.4809], [102.973, 4.4815], [102.9799, 4.4762], [102.9792, 4.4714], [102.984, 4.4697], [102.9843, 4.4668], [102.9889, 4.4638], [102.9895, 4.4549], [102.9959, 4.4509], [103, 4.4509], [103.0122, 4.4342], [103.0105, 4.4202], [103.0137, 4.4115], [103.0193, 4.4084], [103.0259, 4.4095], [103.028, 4.4062], [103.025, 4.3951], [103.0204, 4.3931], [103.0165, 4.3872], [103.0109, 4.3864], [103.0068, 4.3773], [103.0087, 4.3738], [103.008, 4.3668], [103.0104, 4.3545], [103.0077, 4.3447], [103.011, 4.3411], [103.0172, 4.3383], [103.0176, 4.3348], [103.0089, 4.3301], [103.0024, 4.3324], [102.9983, 4.3317], [102.9931, 4.3352], [102.9869, 4.335], [102.9834, 4.3372], [102.9703, 4.3304], [102.9596, 4.3192], [102.9581, 4.3021], [102.9547, 4.2903], [102.9478, 4.2846], [102.9419, 4.2879], [102.9387, 4.2876], [102.9312, 4.2785], [102.9329, 4.2713], [102.9304, 4.2662], [102.9298, 4.255], [102.9354, 4.245], [102.9295, 4.2358], [102.9225, 4.2334], [102.9223, 4.2246], [102.9203, 4.2206], [102.9137, 4.2149], [102.914, 4.208], [102.9208, 4.1948], [102.9222, 4.1833], [102.9195, 4.1779], [102.9216, 4.1578], [102.9198, 4.1544], [102.9031, 4.1471], [102.8926, 4.1372], [102.8929, 4.1331], [102.8974, 4.1301], [102.9076, 4.1126], [102.9123, 4.111], [102.9188, 4.1023], [102.93, 4.0988], [102.9223, 4.0923], [102.9224, 4.0879], [102.9193, 4.0848], [102.9157, 4.0706], [102.9138, 4.0605], [102.9155, 4.0517], [102.9178, 4.0493], [102.919, 4.039], [102.9109, 4.0145], [102.9072, 4.0165], [102.9041, 4.0148], [102.9029, 4.0118], [102.8921, 4.0085], [102.8823, 4.0103], [102.8737, 4.0059], [102.8689, 4.0012], [102.8622, 3.9895], [102.8631, 3.9858], [102.8608, 3.9725], [102.8609, 3.9566], [102.8548, 3.9485], [102.8544, 3.9433], [102.8524, 3.9408], [102.8486, 3.9397], [102.8465, 3.9355], [102.8399, 3.9315], [102.8339, 3.9348], [102.8295, 3.932], [102.8282, 3.9392], [102.8209, 3.9455], [102.8159, 3.9541], [102.8155, 3.9577], [102.8002, 3.9675], [102.798, 3.9566], [102.7925, 3.9475], [102.7883, 3.9476], [102.7859, 3.9425], [102.7828, 3.9453], [102.7784, 3.9453], [102.7722, 3.9423], [102.7705, 3.9322], [102.7631, 3.9285], [102.7607, 3.9254], [102.7591, 3.9214], [102.7601, 3.9177], [102.7581, 3.9149], [102.7564, 3.914], [102.7546, 3.9152], [102.7486, 3.9102], [102.7474, 3.9127], [102.7458, 3.9116], [102.7449, 3.9127], [102.7408, 3.9089], [102.743, 3.9042], [102.742, 3.8998], [102.7443, 3.8954], [102.743, 3.886], [102.7456, 3.8826], [102.7428, 3.8782], [102.739, 3.8791], [102.7294, 3.87], [102.7259, 3.8552], [102.722, 3.8526], [102.7204, 3.8535], [102.7103, 3.8503], [102.7087, 3.8471], [102.7111, 3.8405], [102.7084, 3.8344], [102.6886, 3.8397], [102.6838, 3.8394], [102.6712, 3.8462], [102.6604, 3.8447], [102.6549, 3.8472], [102.655, 3.8507], [102.6486, 3.8524], [102.6419, 3.8496], [102.6396, 3.8525], [102.6311, 3.8526], [102.6232, 3.8417], [102.6229, 3.8526], [102.6173, 3.8536], [102.5858, 3.8438], [102.583, 3.8456], [102.5797, 3.842], [102.5747, 3.8399], [102.5721, 3.8363], [102.5624, 3.8343], [102.5567, 3.8498], [102.5538, 3.8513], [102.5483, 3.8512], [102.5306, 3.8409], [102.5129, 3.8279], [102.502, 3.851], [102.4986, 3.8651], [102.4985, 3.8763], [102.497, 3.8782], [102.4883, 3.8809], [102.4858, 3.8855], [102.4833, 3.8852], [102.4797, 3.8813], [102.4664, 3.8735], [102.4701, 3.8729], [102.4779, 3.8626], [102.4787, 3.8589], [102.4768, 3.8521], [102.4646, 3.8266], [102.4553, 3.8179], [102.4527, 3.8123], [102.4514, 3.8035], [102.4576, 3.7956], [102.4522, 3.7892], [102.4501, 3.7834], [102.4362, 3.7739], [102.4425, 3.7752], [102.4456, 3.7697], [102.4431, 3.7657], [102.4447, 3.7638], [102.4419, 3.7611], [102.4291, 3.7574], [102.43, 3.7558], [102.438, 3.7549], [102.4383, 3.7537], [102.4227, 3.7381], [102.42, 3.7389], [102.4183, 3.7429], [102.4088, 3.7456], [102.4061, 3.7564], [102.3974, 3.7514], [102.3969, 3.7535], [102.3917, 3.7552], [102.3885, 3.7657], [102.3638, 3.8144], [102.3146, 3.815], [102.3073, 3.8016], [102.301, 3.8125], [102.3001, 3.822], [102.2956, 3.8353], [102.2889, 3.8407], [102.2832, 3.8403], [102.2726, 3.8325], [102.2678, 3.8329], [102.2646, 3.8301], [102.2557, 3.8299], [102.2511, 3.8257], [102.2446, 3.826], [102.241, 3.8287], [102.2399, 3.8349], [102.24, 3.8495], [102.2445, 3.8546], [102.2434, 3.8661], [102.2109, 3.8575]]]]}}, {"type": "Feature", "properties": {"district": "Kuantan"}, "geometry": {"type": "MultiPolygon", "coordinates": [[[[103.3264, 4.1907], [103.3335, 4.1917], [103.3449, 4.1791], [103.4003, 4.1795], [103.4402, 4.1877], [103.443, 4.1867], [103.4451, 4.1813], [103.4403, 4.1745], [103.435, 4.1786], [103.4291, 4.1787], [103.4209, 4.1772], [103.4149, 4.1728], [103.4099, 4.1563], [103.408, 4.1308], [103.4059, 4.1325], [103.3999, 4.1255], [103.3962, 4.1277], [103.3934, 4.1269], [103.3873, 4.1211], [103.3849, 4.1121], [103.3883, 4.0808], [103.3966, 4.0565], [103.3961, 4.0517], [103.3987, 4.0412], [103.412, 4.0097], [103.4323, 3.9749], [103.4419, 3.9649], [103.4413, 3.9633], [103.4363, 3.962], [103.4359, 3.9582], [103.4319, 3.9568], [103.4296, 3.9608], [103.415, 3.9678], [103.4093, 3.9687], [103.4024, 3.9664], [103.3939, 3.9593], [103.377, 3.9335], [103.37, 3.9195], [103.3676, 3.9041], [103.3679, 3.8767], [103.3762, 3.8413], [103.3759, 3.83], [103.3786, 3.821], [103.3748, 3.8191], [103.3726, 3.8158], [103.3742, 3.8047], [103.3728, 3.8018], [103.3658, 3.8085], [103.3555, 3.8102], [103.3425, 3.8063], [103.3423, 3.8016], [103.3294, 3.7692], [103.3263, 3.7562], [103.3258, 3.745], [103.3351, 3.7131], [103.3514, 3.6773], [103.3691, 3.6503], [103.371, 3.645], [103.3675, 3.6433], [103.3677, 3.6411], [103.3742, 3.643], [103.3772, 3.637], [103.3902, 3.621], [103.3988, 3.604], [103.3972, 3.6016], [103.3925, 3.6011], [103.3919, 3.5982], [103.3875, 3.5999], [103.3856, 3.5991], [103.3832, 3.6068], [103.3795, 3.6091], [103.374, 3.6043], [103.3707, 3.6088], [103.3695, 3.6059], [103.3674, 3.6073], [103.3593, 3.6048], [103.2337, 3.611], [103.1202, 3.6192], [103.0932, 3.626], [103.0659, 3.6297], [103.0512, 3.6336], [103.0505, 3.6323], [103.0471, 3.6326], [103.0074, 3.6422], [102.9193, 3.6592], [102.9102, 3.6712], [102.9046, 3.6749], [102.9006, 3.675], [102.901, 3.6786], [102.8929, 3.6808], [102.892, 3.6842], [102.8945, 3.6887], [102.8935, 3.6938], [102.888, 3.695], [102.8742, 3.7095], [102.87, 3.7174], [102.8656, 3.7167], [102.8599, 3.7208], [102.8481, 3.72], [102.8449, 3.7164], [102.8436, 3.7101], [102.8401, 3.7064], [102.8334, 3.7034], [102.8307, 3.6985], [102.8259, 3.6992], [102.8248, 3.7023], [102.8276, 3.7153], [102.8109, 3.7231], [102.8014, 3.734], [102.7999, 3.7421], [102.8039, 3.7534], [102.8007, 3.7563], [102.8007, 3.7618], [102.7973, 3.7619], [102.7938, 3.7654], [102.7888, 3.76], [102.7786, 3.7571], [102.7685, 3.7572], [102.7633, 3.7498], [102.7579, 3.7494], [102.757, 3.7553], [102.7479, 3.7609], [102.737, 3.7777], [102.7369, 3.7877], [102.7341, 3.7925], [102.7292, 3.7979], [102.7273, 3.7981], [102.7223, 3.8055], [102.7113, 3.8117], [102.709, 3.8182], [102.7121, 3.8253], [102.7084, 3.8344], [102.7111, 3.8405], [102.7087, 3.8471], [102.7103, 3.8503], [102.7204, 3.8535], [102.722, 3.8526], [102.7259, 3.8552], [102.7294, 3.87], [102.739, 3.8791], [102.7428, 3.8782], [102.7442, 3.8796], [102.7456, 3.8826], [102.743, 3.886], [102.7445, 3.8933], [102.742, 3.8998], [102.743, 3.9031], [102.7409, 3.9069], [102.7416, 3.9099], [102.7449, 3.9127], [102.7458, 3.9116], [102.7474, 3.9127], [102.7486, 3.9102], [102.7546, 3.9152], [102.7564, 3.914], [102.7581, 3.9149], [102.7601, 3.9177], [102.7591, 3.9214], [102.7607, 3.9254], [102.7631, 3.9285], [102.7705, 3.9322], [102.7722, 3.9423], [102.7784, 3.9453], [102.7828, 3.9453], [102.7859, 3.9425], [102.7883, 3.9476], [102.7925, 3.9475], [102.798, 3.9566], [102.8002, 3.9675], [102.8155, 3.9577], [102.8159, 3.9541], [102.8209, 3.9455], [102.8282, 3.9392], [102.8295, 3.932], [102.8339, 3.9348], [102.8399, 3.9315], [102.8465, 3.9355], [102.8486, 3.9397], [102.8524, 3.9408], [102.8544, 3.9433], [102.8548, 3.9485], [102.8609, 3.9566], [102.8608, 3.9725], [102.8631, 3.9858], [102.8622, 3.9895], [102.8689, 4.0012], [102.8737, 4.0059], [102.8823, 4.0103], [102.8921, 4.0085], [102.8988, 4.0097], [102.9029, 4.0118], [102.9056, 4.016], [102.9109, 4.0145], [102.9128, 4.0171], [102.9133, 4.023], [102.919, 4.039], [102.9178, 4.0493], [102.9155, 4.0517], [102.9138, 4.0605], [102.9193, 4.0848], [102.9224, 4.0879], [102.9223, 4.0923], [102.9375, 4.1043], [102.9617, 4.1137], [102.966, 4.1191], [102.9689, 4.1191], [102.9701, 4.1211], [102.9753, 4.1201], [102.9828, 4.124], [102.9862, 4.1204], [102.9953, 4.131], [102.9987, 4.1292], [103.0054, 4.1291], [103.009, 4.1217], [103.0121, 4.1207], [103.0175, 4.121], [103.0205, 4.1193], [103.0241, 4.1215], [103.0294, 4.1218], [103.0408, 4.1176], [103.0452, 4.118], [103.0468, 4.1161], [103.0524, 4.1178], [103.0544, 4.12], [103.058, 4.1175], [103.0645, 4.117], [103.0678, 4.1139], [103.0716, 4.1143], [103.0746, 4.1083], [103.0733, 4.1044], [103.0744, 4.0982], [103.0766, 4.0956], [103.0866, 4.0967], [103.0997, 4.0892], [103.1033, 4.0932], [103.1085, 4.0881], [103.1202, 4.0843], [103.1205, 4.0818], [103.1226, 4.0824], [103.1249, 4.0784], [103.1236, 4.0724], [103.1284, 4.0712], [103.1325, 4.0658], [103.135, 4.0521], [103.1406, 4.0561], [103.1445, 4.0513], [103.1501, 4.0483], [103.156, 4.0481], [103.1617, 4.0415], [103.1612, 4.0391], [103.1635, 4.0351], [103.17, 4.0316], [103.1768, 4.0304], [103.1793, 4.0314], [103.1823, 4.0298], [103.186, 4.0322], [103.1911, 4.0291], [103.1957, 4.0409], [103.2004, 4.0411], [103.2049, 4.0384], [103.2036, 4.0286], [103.2089, 4.0154], [103.2123, 4.0129], [103.2178, 4.012], [103.2242, 4.0176], [103.2265, 4.0218], [103.2319, 4.021], [103.2361, 4.0172], [103.2388, 4.0199], [103.2446, 4.0178], [103.2427, 4.0086], [103.2448, 4.0021], [103.2487, 3.9969], [103.2479, 3.9942], [103.2494, 3.991], [103.2524, 3.9916], [103.255, 3.9881], [103.2579, 3.9878], [103.2693, 3.9797], [103.2717, 3.9775], [103.2757, 3.9679], [103.276, 3.9636], [103.2712, 3.9608], [103.271, 3.9564], [103.2685, 3.9542], [103.267, 3.9498], [103.27, 3.95], [103.2733, 3.9442], [103.2734, 3.9404], [103.2803, 3.9402], [103.3022, 3.9008], [103.303, 3.8928], [103.3128, 3.8824], [103.3157, 3.8851], [103.3163, 3.8904], [103.3199, 3.8941], [103.3184, 3.9006], [103.306, 3.921], [103.3093, 3.9238], [103.3293, 3.9318], [103.3284, 3.9372], [103.3345, 3.9469], [103.3362, 3.9525], [103.3364, 3.9653], [103.336, 3.9701], [103.3336, 3.9744], [103.3345, 3.9844], [103.3295, 3.9891], [103.3274, 3.9942], [103.3249, 4.0118], [103.3292, 4.0346], [103.3265, 4.0499], [103.3177, 4.0643], [103.3134, 4.0633], [103.3075, 4.0654], [103.3007, 4.0854], [103.3022, 4.0887], [103.3053, 4.0891], [103.3071, 4.0948], [103.3059, 4.1032], [103.3081, 4.11], [103.3083, 4.1193], [103.3225, 4.1254], [103.3243, 4.1276], [103.3247, 4.1437], [103.3284, 4.1454], [103.3278, 4.1521], [103.3252, 4.1579], [103.3285, 4.1631], [103.3238, 4.1652], [103.3211, 4.1724], [103.3206, 4.1836], [103.3179, 4.1881], [103.3195, 4.1921], [103.3188, 4.1953], [103.3209, 4.1969], [103.3264, 4.1907]]]]}}, {"type": "Feature", "properties": {"district": "Kuala Lipis"}, "geometry": {"type": "MultiPolygon", "coordinates": [[[[101.7759, 4.0847], [101.7716, 4.0852], [101.7696, 4.0996], [101.7561, 4.1074], [101.7502, 4.1162], [101.7416, 4.1151], [101.7395, 4.1171], [101.7357, 4.1133], [101.7392, 4.1042], [101.7249, 4.0943], [101.7225, 4.0966], [101.7175, 4.0951], [101.7143, 4.0958], [101.7136, 4.0923], [101.7067, 4.0842], [101.7048, 4.077], [101.7011, 4.073], [101.6933, 4.0732], [101.6884, 4.0715], [101.6793, 4.079], [101.6696, 4.0766], [101.6585, 4.0794], [101.642, 4.0864], [101.6377, 4.0866], [101.6306, 4.0942], [101.6274, 4.095], [101.6236, 4.0937], [101.6216, 4.0854], [101.618, 4.085], [101.6142, 4.081], [101.6096, 4.0817], [101.6054, 4.0789], [101.5986, 4.0788], [101.5979, 4.0766], [101.5952, 4.0759], [101.5884, 4.0789], [101.5805, 4.0751], [101.5771, 4.0798], [101.5778, 4.0864], [101.5734, 4.0967], [101.5682, 4.0961], [101.5656, 4.0991], [101.5629, 4.0993], [101.5597, 4.102], [101.5593, 4.108], [101.54, 4.1186], [101.538, 4.1222], [101.534, 4.1234], [101.533, 4.1261], [101.5265, 4.126], [101.5176, 4.1186], [101.5143, 4.1178], [101.5113, 4.1261], [101.5048, 4.1319], [101.5018, 4.1523], [101.4958, 4.1533], [101.4939, 4.1613], [101.4969, 4.1641], [101.4955, 4.1697], [101.498, 4.175], [101.4956, 4.1847], [101.498, 4.1874], [101.5019, 4.1875], [101.5034, 4.1896], [101.5049, 4.1975], [101.5085, 4.1993], [101.5074, 4.2058], [101.5022, 4.207], [101.4963, 4.2058], [101.4912, 4.208], [101.4901, 4.2107], [101.4865, 4.2085], [101.4757, 4.2104], [101.468, 4.2151], [101.4621, 4.2135], [101.4567, 4.2194], [101.4532, 4.22], [101.4506, 4.2231], [101.4511, 4.2389], [101.4523, 4.2414], [101.4608, 4.2461], [101.4634, 4.2547], [101.4448, 4.2693], [101.4433, 4.2725], [101.4467, 4.2852], [101.4464, 4.2916], [101.4498, 4.3006], [101.4471, 4.3052], [101.4483, 4.3123], [101.4445, 4.3153], [101.4432, 4.3196], [101.4523, 4.3208], [101.4591, 4.3185], [101.474, 4.3268], [101.4842, 4.3239], [101.4886, 4.3198], [101.494, 4.3288], [101.4978, 4.3293], [101.5056, 4.3341], [101.5104, 4.3312], [101.5192, 4.3298], [101.5254, 4.3358], [101.5352, 4.3405], [101.5373, 4.3435], [101.5481, 4.3456], [101.553, 4.3487], [101.5559, 4.3518], [101.5563, 4.3583], [101.5634, 4.3617], [101.5775, 4.3549], [101.5803, 4.3555], [101.5821, 4.3535], [101.5859, 4.3555], [101.5875, 4.359], [101.585, 4.3621], [101.5853, 4.3659], [101.5898, 4.378], [101.5926, 4.3802], [101.5924, 4.3891], [101.6006, 4.4002], [101.6017, 4.4043], [101.6059, 4.4065], [101.6075, 4.4117], [101.6036, 4.418], [101.6062, 4.4243], [101.6014, 4.4331], [101.6016, 4.441], [101.6043, 4.444], [101.6035, 4.447], [101.5961, 4.452], [101.5956, 4.4551], [101.5892, 4.4541], [101.5889, 4.4626], [101.5922, 4.4655], [101.5902, 4.4694], [101.5936, 4.4714], [101.5902, 4.4744], [101.5868, 4.4893], [101.5834, 4.493], [101.5836, 4.5016], [101.5883, 4.5193], [101.5921, 4.5239], [101.5915, 4.5366], [101.5877, 4.5466], [101.5919, 4.5568], [101.5949, 4.5591], [101.6119, 4.5615], [101.6139, 4.5606], [101.6178, 4.5501], [101.6212, 4.5465], [101.6238, 4.5466], [101.6363, 4.5582], [101.6412, 4.5588], [101.6451, 4.5566], [101.6518, 4.5573], [101.6618, 4.5642], [101.6677, 4.5722], [101.6685, 4.5828], [101.673, 4.5937], [101.6785, 4.5938], [101.6903, 4.6], [101.7094, 4.6042], [101.7124, 4.6081], [101.7171, 4.6072], [101.7209, 4.6098], [101.7227, 4.6091], [101.7257, 4.6117], [101.7245, 4.6153], [101.7268, 4.6217], [101.7321, 4.6226], [101.7351, 4.6184], [101.7431, 4.6126], [101.7476, 4.6127], [101.7523, 4.6103], [101.7545, 4.6122], [101.7524, 4.621], [101.7534, 4.6221], [101.7576, 4.6247], [101.7624, 4.6221], [101.764, 4.6226], [101.7675, 4.6358], [101.7683, 4.6542], [101.7739, 4.6636], [101.7731, 4.6735], [101.7689, 4.6772], [101.7713, 4.6922], [101.7695, 4.6956], [101.7716, 4.701], [101.7755, 4.7038], [101.7764, 4.7064], [101.7733, 4.7098], [101.7751, 4.7165], [101.7733, 4.7203], [101.774, 4.7415], [101.7766, 4.7526], [101.7801, 4.7588], [101.7956, 4.7567], [101.7968, 4.7577], [101.7962, 4.762], [101.8002, 4.763], [101.8052, 4.7596], [101.8147, 4.7593], [101.8164, 4.7547], [101.8204, 4.7507], [101.8197, 4.7231], [101.8236, 4.7182], [101.8296, 4.7157], [101.8358, 4.7212], [101.8415, 4.7196], [101.8465, 4.7046], [101.8446, 4.6994], [101.847, 4.687], [101.8514, 4.684], [101.8543, 4.6847], [101.8604, 4.6923], [101.8622, 4.6925], [101.8639, 4.6847], [101.8678, 4.6794], [101.8784, 4.6777], [101.884, 4.6752], [101.8886, 4.6709], [101.8871, 4.6649], [101.8932, 4.6619], [101.8916, 4.6555], [101.8936, 4.6488], [101.8899, 4.6431], [101.8895, 4.6359], [101.8931, 4.6284], [101.895, 4.6161], [101.8968, 4.6128], [101.903, 4.6086], [101.9125, 4.611], [101.9155, 4.632], [101.9223, 4.6417], [101.924, 4.6512], [101.9268, 4.6567], [101.9376, 4.6584], [101.9427, 4.6662], [101.9448, 4.6751], [101.9432, 4.6805], [101.9465, 4.6886], [101.9524, 4.7133], [101.9505, 4.7225], [101.9523, 4.7353], [101.949, 4.7449], [101.9496, 4.753], [101.9515, 4.7573], [101.964, 4.7636], [101.9654, 4.7608], [101.9683, 4.7598], [101.9702, 4.7491], [101.9731, 4.7489], [101.9803, 4.7426], [101.9825, 4.743], [101.9853, 4.7405], [101.9859, 4.7447], [101.9839, 4.7483], [101.9879, 4.7517], [101.9863, 4.7578], [101.9871, 4.7598], [101.9903, 4.7588], [101.9922, 4.7609], [101.9953, 4.759], [102.0006, 4.7622], [102.0019, 4.759], [102.0008, 4.7517], [102.0036, 4.7474], [102.0085, 4.7444], [102.0142, 4.7356], [102.0201, 4.7327], [102.0224, 4.74], [102.0278, 4.7408], [102.0309, 4.7393], [102.0347, 4.7312], [102.0372, 4.7299], [102.04, 4.7309], [102.042, 4.7299], [102.0427, 4.7261], [102.0462, 4.7269], [102.0489, 4.7248], [102.0509, 4.7285], [102.0497, 4.7346], [102.057, 4.7418], [102.0582, 4.7423], [102.062, 4.7389], [102.0668, 4.74], [102.081, 4.7474], [102.0858, 4.7532], [102.089, 4.7532], [102.0946, 4.7579], [102.1139, 4.7618], [102.1273, 4.7378], [102.1236, 4.7234], [102.1249, 4.7197], [102.1273, 4.7185], [102.1316, 4.7118], [102.1495, 4.7017], [102.1545, 4.6958], [102.1597, 4.6925], [102.1639, 4.6856], [102.1699, 4.6818], [102.1751, 4.6732], [102.1751, 4.6661], [102.173, 4.6629], [102.1748, 4.6582], [102.1853, 4.6539], [102.1917, 4.6482], [102.1979, 4.6384], [102.2035, 4.6353], [102.2103, 4.6344], [102.2184, 4.6287], [102.2251, 4.6282], [102.2182, 4.6114], [102.2155, 4.5939], [102.2268, 4.564], [102.2404, 4.5479], [102.2452, 4.5365], [102.2547, 4.5291], [102.2609, 4.5199], [102.2558, 4.5163], [102.2537, 4.5168], [102.253, 4.5082], [102.2505, 4.5034], [102.2515, 4.4973], [102.2491, 4.4957], [102.2449, 4.4804], [102.2447, 4.4707], [102.2397, 4.4636], [102.2434, 4.4598], [102.2401, 4.456], [102.2415, 4.452], [102.2462, 4.4502], [102.2452, 4.4482], [102.2482, 4.4449], [102.2482, 4.4424], [102.2557, 4.4379], [102.2575, 4.4335], [102.2476, 4.4319], [102.2445, 4.4338], [102.2417, 4.4323], [102.2365, 4.4327], [102.2332, 4.4289], [102.2349, 4.4232], [102.2329, 4.4203], [102.228, 4.42], [102.2219, 4.4236], [102.2152, 4.4178], [102.2141, 4.4129], [102.2173, 4.4078], [102.2165, 4.4043], [102.2201, 4.3994], [102.22, 4.3963], [102.217, 4.3966], [102.2142, 4.3945], [102.2105, 4.3877], [102.2112, 4.3817], [102.2093, 4.3816], [102.2131, 4.3694], [102.2143, 4.3676], [102.218, 4.3683], [102.2196, 4.3669], [102.2212, 4.3602], [102.2246, 4.3553], [102.2216, 4.3489], [102.2219, 4.3435], [102.2185, 4.3398], [102.2161, 4.3407], [102.2147, 4.3367], [102.2175, 4.3301], [102.2221, 4.3294], [102.2281, 4.333], [102.2335, 4.3316], [102.2315, 4.3217], [102.2364, 4.3186], [102.2365, 4.3165], [102.2305, 4.3089], [102.2301, 4.303], [102.2328, 4.2981], [102.2367, 4.2938], [102.2406, 4.2921], [102.241, 4.2903], [102.2409, 4.2871], [102.2381, 4.2843], [102.2337, 4.2833], [102.236, 4.2756], [102.2377, 4.2738], [102.2405, 4.2743], [102.2464, 4.2662], [102.2496, 4.2588], [102.2496, 4.2519], [102.2457, 4.2424], [102.2501, 4.2358], [102.2566, 4.2331], [102.2578, 4.2285], [102.2632, 4.2202], [102.2659, 4.2114], [102.2723, 4.2067], [102.2694, 4.201], [102.2724, 4.1941], [102.2693, 4.1896], [102.2704, 4.1845], [102.268, 4.18], [102.2682, 4.1735], [102.2637, 4.1651], [102.2616, 4.1649], [102.2598, 4.1622], [102.2583, 4.1629], [102.2541, 4.153], [102.2552, 4.1469], [102.2523, 4.1434], [102.2472, 4.1413], [102.247, 4.1372], [102.2522, 4.1319], [102.2509, 4.1268], [102.254, 4.1185], [102.259, 4.1203], [102.2635, 4.1136], [102.2712, 4.113], [102.2796, 4.1179], [102.2933, 4.1175], [102.2954, 4.1148], [102.295, 4.1124], [102.3049, 4.0995], [102.3136, 4.0991], [102.3156, 4.0971], [102.3154, 4.0943], [102.3047, 4.0805], [102.3075, 4.0728], [102.3069, 4.0706], [102.3058, 4.0697], [102.2974, 4.0726], [102.2977, 4.0668], [102.2948, 4.0663], [102.2836, 4.052], [102.2819, 4.0526], [102.2822, 4.0556], [102.2795, 4.0591], [102.277, 4.0584], [102.2712, 4.0621], [102.269, 4.0601], [102.2659, 4.0605], [102.2651, 4.0622], [102.2622, 4.0618], [102.2586, 4.0585], [102.2557, 4.046], [102.253, 4.0461], [102.2481, 4.0536], [102.2396, 4.0513], [102.2361, 4.0457], [102.2358, 4.0395], [102.2329, 4.0342], [102.2265, 4.0352], [102.2204, 4.0408], [102.2179, 4.041], [102.2164, 4.0387], [102.2116, 4.0411], [102.207, 4.0329], [102.2021, 4.0333], [102.201, 4.032], [102.1966, 4.0343], [102.1944, 4.0376], [102.1688, 4.0358], [102.1619, 4.0406], [102.1572, 4.042], [102.153, 4.0481], [102.1523, 4.0591], [102.1496, 4.0639], [102.1325, 4.0741], [102.117, 4.0793], [102.11, 4.0785], [102.1064, 4.0755], [102.102, 4.0788], [102.0961, 4.0773], [102.0924, 4.0717], [102.0937, 4.0658], [102.0966, 4.0616], [102.0937, 4.0545], [102.0943, 4.0463], [102.0905, 4.0405], [102.0907, 4.0383], [102.0979, 4.0323], [102.098, 4.0287], [102.1002, 4.0248], [102.1069, 4.0224], [102.1113, 4.0187], [102.1191, 4.0191], [102.1198, 4.0139], [102.1275, 4.0121], [102.1284, 4.003], [102.1252, 4.0008], [102.1185, 3.9996], [102.1151, 3.9959], [102.1133, 3.9926], [102.1144, 3.99], [102.1121, 3.9886], [102.1097, 3.9816], [102.105, 3.979], [102.1012, 3.9792], [102.0946, 3.9748], [102.0897, 3.9765], [102.0779, 3.9699], [102.0713, 3.973], [102.0691, 3.9724], [102.0665, 3.9749], [102.062, 3.9726], [102.0547, 3.9768], [102.0509, 3.9725], [102.0443, 3.9701], [102.038, 3.9724], [102.0338, 3.9818], [102.0289, 3.9858], [102.0181, 3.9829], [102.0123, 3.975], [102.0077, 3.9718], [101.9985, 3.9579], [101.9984, 3.9516], [101.9927, 3.9463], [101.9887, 3.9339], [101.9831, 3.9289], [101.9733, 3.9265], [101.9721, 3.9231], [101.966, 3.922], [101.9607, 3.9243], [101.9577, 3.922], [101.9549, 3.9239], [101.9559, 3.9286], [101.954, 3.9319], [101.9484, 3.9329], [101.9466, 3.9384], [101.9439, 3.9416], [101.94, 3.9426], [101.939, 3.9461], [101.9337, 3.9447], [101.9265, 3.9468], [101.9281, 3.9509], [101.9319, 3.9534], [101.9323, 3.9567], [101.9277, 3.9598], [101.9314, 3.964], [101.9325, 3.9687], [101.938, 3.9675], [101.9443, 3.9699], [101.9447, 3.9739], [101.9516, 3.9776], [101.9513, 3.9833], [101.9526, 3.9855], [101.9618, 3.9895], [101.9622, 3.9919], [101.9633, 4.0014], [101.9582, 4.0097], [101.9584, 4.0137], [101.9478, 4.0198], [101.9459, 4.0297], [101.9389, 4.0379], [101.9422, 4.0428], [101.9427, 4.047], [101.9448, 4.0486], [101.9466, 4.0535], [101.9459, 4.0592], [101.9515, 4.0732], [101.9553, 4.0765], [101.9551, 4.0778], [101.9495, 4.0781], [101.9476, 4.0812], [101.9513, 4.0892], [101.9438, 4.0913], [101.9399, 4.0895], [101.9358, 4.092], [101.933, 4.0895], [101.9279, 4.0908], [101.9247, 4.0988], [101.9225, 4.0983], [101.916, 4.1056], [101.9129, 4.1037], [101.9108, 4.1043], [101.908, 4.1016], [101.9034, 4.1016], [101.9032, 4.0966], [101.9075, 4.0946], [101.9059, 4.091], [101.902, 4.0904], [101.9024, 4.0858], [101.8974, 4.0813], [101.8983, 4.0785], [101.8954, 4.0725], [101.8909, 4.0712], [101.8897, 4.0728], [101.8906, 4.0767], [101.8861, 4.0771], [101.8853, 4.0792], [101.8828, 4.0761], [101.8778, 4.076], [101.878, 4.0671], [101.8744, 4.0682], [101.8733, 4.0653], [101.869, 4.0616], [101.8647, 4.0605], [101.8635, 4.0565], [101.8603, 4.0544], [101.8527, 4.0293], [101.8485, 4.0274], [101.8432, 4.0312], [101.8402, 4.0305], [101.8378, 4.0276], [101.8373, 4.0305], [101.8353, 4.0315], [101.8314, 4.031], [101.824, 4.0345], [101.8122, 4.036], [101.8097, 4.0542], [101.809, 4.086], [101.8079, 4.0882], [101.8055, 4.0875], [101.8059, 4.1066], [101.804, 4.111], [101.8044, 4.119], [101.8008, 4.1466], [101.7992, 4.1496], [101.8003, 4.1521], [101.7986, 4.1535], [101.8018, 4.1558], [101.8026, 4.1606], [101.806, 4.1638], [101.8089, 4.1641], [101.8121, 4.1682], [101.8101, 4.1745], [101.8031, 4.1816], [101.7965, 4.1799], [101.7969, 4.1857], [101.7955, 4.186], [101.7877, 4.1816], [101.7845, 4.1855], [101.7798, 4.1838], [101.7764, 4.1609], [101.7775, 4.1587], [101.7743, 4.1555], [101.7736, 4.151], [101.7789, 4.1484], [101.7798, 4.139], [101.7735, 4.137], [101.7805, 4.1329], [101.7782, 4.1277], [101.7785, 4.1233], [101.7748, 4.1217], [101.7775, 4.1165], [101.774, 4.111], [101.7759, 4.1108], [101.7772, 4.1058], [101.7764, 4.0867], [101.7784, 4.086], [101.7779, 4.0843], [101.7759, 4.0847]]]]}}, {"type": "Feature", "properties": {"district": "Pekan"}, "geometry": {"type": "MultiPolygon", "coordinates": [[[[103.4336, 3.4193], [103.4251, 3.3807], [103.4237, 3.3788], [103.4236, 3.3806], [103.4226, 3.3795], [103.422, 3.3609], [103.426, 3.3199], [103.4416, 3.2401], [103.4453, 3.2036], [103.4415, 3.1775], [103.442, 3.1617], [103.4469, 3.1279], [103.4428, 3.1272], [103.4422, 3.1256], [103.4411, 3.1015], [103.4381, 3.0907], [103.4371, 3.0745], [103.4322, 3.0543], [103.4322, 3.0511], [103.4351, 3.0546], [103.4312, 3.0383], [103.431, 3.0103], [103.4286, 3.003], [103.4299, 2.9841], [103.4279, 2.9635], [103.4298, 2.9646], [103.4277, 2.947], [103.3655, 2.9637], [103.2349, 2.9657], [103.1634, 2.9588], [103.165, 2.963], [103.1626, 2.9635], [103.1585, 2.9677], [103.1601, 2.9717], [103.1587, 2.9778], [103.1532, 2.986], [103.1497, 2.9839], [103.1442, 2.9893], [103.1249, 2.9902], [103.1282, 3], [103.1199, 3.0043], [103.1166, 3.0095], [103.1156, 3.0167], [103.136, 3.0167], [103.136, 3.0557], [103.1311, 3.0557], [103.131, 3.0657], [103.1192, 3.0656], [103.1088, 3.0832], [103.0804, 3.0841], [103.0792, 3.0977], [103.0681, 3.0984], [103.0661, 3.103], [103.0674, 3.1063], [103.0721, 3.1076], [103.0814, 3.1181], [103.0874, 3.1186], [103.0897, 3.1212], [103.0955, 3.1226], [103.0999, 3.1187], [103.1019, 3.1188], [103.1053, 3.1223], [103.1091, 3.122], [103.1102, 3.1259], [103.1069, 3.1371], [103.1013, 3.1453], [103.1028, 3.1493], [103.1088, 3.1499], [103.1129, 3.1536], [103.1128, 3.1566], [103.1158, 3.1574], [103.1207, 3.1619], [103.1244, 3.1627], [103.123, 3.1646], [103.1172, 3.1663], [103.1198, 3.1744], [103.1231, 3.1769], [103.1236, 3.1837], [103.1206, 3.1881], [103.1161, 3.189], [103.1168, 3.1921], [103.1283, 3.2054], [103.1265, 3.2083], [103.1271, 3.2132], [103.1256, 3.2164], [103.1187, 3.2196], [103.1156, 3.2229], [103.1147, 3.2271], [103.11, 3.2272], [103.1086, 3.2297], [103.1122, 3.2394], [103.1093, 3.2412], [103.1053, 3.2412], [103.1034, 3.2494], [103.1003, 3.2525], [103.0897, 3.2559], [103.0889, 3.2587], [103.0906, 3.2629], [103.0871, 3.2631], [103.0888, 3.2676], [103.086, 3.2675], [103.0833, 3.2651], [103.0819, 3.2702], [103.0737, 3.2777], [103.0734, 3.2812], [103.0773, 3.2865], [103.0761, 3.2885], [103.078, 3.2942], [103.0743, 3.3106], [103.0705, 3.3155], [103.0684, 3.322], [103.0635, 3.326], [103.0611, 3.3244], [103.0552, 3.3153], [103.0518, 3.3169], [103.0463, 3.3135], [103.0453, 3.3094], [103.0426, 3.3099], [103.0339, 3.2977], [103.0304, 3.2982], [103.0289, 3.2959], [103.0256, 3.2976], [103.0201, 3.294], [103.0187, 3.2914], [103.0202, 3.2887], [103.0194, 3.2868], [103.0092, 3.2851], [103.0082, 3.2885], [103.004, 3.2903], [102.9932, 3.2845], [102.9925, 3.2822], [102.988, 3.281], [102.986, 3.2826], [102.9837, 3.2822], [102.9804, 3.2774], [102.9746, 3.2783], [102.9716, 3.2808], [102.9705, 3.2845], [102.9661, 3.2873], [102.9676, 3.2918], [102.959, 3.2934], [102.9585, 3.2996], [102.9551, 3.3018], [102.9562, 3.3082], [102.953, 3.3163], [102.9512, 3.3118], [102.9453, 3.3077], [102.9365, 3.3076], [102.9364, 3.3107], [102.9312, 3.3089], [102.9313, 3.3036], [102.9259, 3.2894], [102.9259, 3.2859], [102.9215, 3.2834], [102.921, 3.2791], [102.9187, 3.2762], [102.9204, 3.2724], [102.9139, 3.2722], [102.9121, 3.2695], [102.9102, 3.2697], [102.9043, 3.2721], [102.9032, 3.2758], [102.8966, 3.279], [102.888, 3.2763], [102.8875, 3.2823], [102.8848, 3.284], [102.8837, 3.2871], [102.8794, 3.2891], [102.8788, 3.294], [102.8733, 3.2962], [102.8723, 3.2997], [102.8607, 3.3102], [102.8603, 3.3154], [102.8564, 3.3187], [102.8532, 3.3182], [102.8505, 3.3197], [102.8467, 3.3272], [102.843, 3.3298], [102.835, 3.3467], [102.8237, 3.3597], [102.8224, 3.3642], [102.827, 3.3723], [102.8261, 3.3773], [102.8294, 3.3798], [102.8206, 3.3824], [102.8061, 3.3906], [102.8063, 3.3976], [102.8019, 3.4013], [102.7988, 3.41], [102.7968, 3.4105], [102.795, 3.4143], [102.7759, 3.4253], [102.7784, 3.4324], [102.7743, 3.4353], [102.7761, 3.437], [102.7761, 3.4414], [102.7702, 3.4461], [102.7734, 3.4499], [102.7714, 3.4541], [102.7733, 3.4596], [102.7912, 3.4597], [102.7872, 3.4675], [102.7886, 3.4695], [102.7975, 3.4712], [102.807, 3.4688], [102.8104, 3.4606], [102.8176, 3.4577], [102.8232, 3.4617], [102.8228, 3.4655], [102.8188, 3.4674], [102.818, 3.4703], [102.8191, 3.4731], [102.8222, 3.4739], [102.8243, 3.4768], [102.8293, 3.4776], [102.8337, 3.4818], [102.8434, 3.4785], [102.849, 3.4795], [102.8624, 3.499], [102.8611, 3.502], [102.8637, 3.5053], [102.8627, 3.5095], [102.8671, 3.5132], [102.8649, 3.525], [102.8659, 3.5273], [102.8786, 3.5251], [102.8788, 3.5285], [102.8825, 3.5329], [102.8922, 3.5349], [102.8978, 3.5406], [102.9012, 3.5478], [102.8978, 3.5596], [102.8997, 3.5696], [102.9122, 3.5844], [102.9159, 3.5857], [102.9207, 3.5951], [102.9197, 3.6031], [102.9137, 3.6153], [102.9139, 3.6227], [102.9182, 3.6317], [102.9184, 3.6369], [102.9159, 3.6437], [102.9128, 3.6466], [102.9167, 3.651], [102.9193, 3.6592], [102.9212, 3.6592], [103.0074, 3.6422], [103.0471, 3.6326], [103.0505, 3.6323], [103.0512, 3.6336], [103.0659, 3.6297], [103.0932, 3.626], [103.1202, 3.6192], [103.2337, 3.611], [103.3593, 3.6048], [103.3674, 3.6073], [103.3695, 3.6059], [103.3707, 3.6088], [103.374, 3.6043], [103.3795, 3.6091], [103.3832, 3.6068], [103.3856, 3.5991], [103.3875, 3.5999], [103.3919, 3.5982], [103.3925, 3.6011], [103.3972, 3.6016], [103.399, 3.6038], [103.4025, 3.6018], [103.4154, 3.5824], [103.4317, 3.5653], [103.4479, 3.5451], [103.4678, 3.5323], [103.4743, 3.5194], [103.4745, 3.5028], [103.4706, 3.465], [103.4656, 3.4597], [103.4414, 3.4486], [103.4336, 3.4193]]]]}}, {"type": "Feature", "properties": {"district": "Raub"}, "geometry": {"type": "MultiPolygon", "coordinates": [[[[101.7783, 4.0842], [101.7784, 4.086], [101.7764, 4.0867], [101.7772, 4.1058], [101.7759, 4.1108], [101.774, 4.111], [101.7775, 4.1165], [101.7748, 4.1217], [101.7785, 4.1233], [101.7782, 4.1277], [101.7805, 4.1329], [101.7735, 4.137], [101.7798, 4.139], [101.7789, 4.1484], [101.7736, 4.151], [101.7743, 4.1555], [101.7775, 4.1587], [101.7764, 4.1609], [101.7798, 4.1838], [101.7845, 4.1855], [101.7877, 4.1816], [101.7955, 4.186], [101.7969, 4.1857], [101.7965, 4.1799], [101.8031, 4.1816], [101.8101, 4.1745], [101.8121, 4.1682], [101.8089, 4.1641], [101.806, 4.1638], [101.8026, 4.1606], [101.8018, 4.1558], [101.7986, 4.1535], [101.8003, 4.1521], [101.7992, 4.1496], [101.8008, 4.1466], [101.8044, 4.119], [101.804, 4.111], [101.8059, 4.1066], [101.8053, 4.0875], [101.8079, 4.0882], [101.809, 4.086], [101.8097, 4.0542], [101.8122, 4.036], [101.824, 4.0345], [101.8314, 4.031], [101.8353, 4.0315], [101.8373, 4.0305], [101.8378, 4.0276], [101.8402, 4.0305], [101.8432, 4.0312], [101.8485, 4.0274], [101.8527, 4.0293], [101.8571, 4.0405], [101.8587, 4.0511], [101.861, 4.0555], [101.8635, 4.0565], [101.8647, 4.0605], [101.869, 4.0616], [101.8733, 4.0653], [101.8744, 4.0682], [101.878, 4.0671], [101.8778, 4.076], [101.8828, 4.0761], [101.8846, 4.079], [101.8861, 4.0771], [101.8906, 4.0767], [101.8897, 4.0728], [101.8909, 4.0712], [101.8954, 4.0725], [101.8983, 4.0785], [101.8974, 4.0813], [101.9024, 4.0858], [101.902, 4.0904], [101.9059, 4.091], [101.9075, 4.0946], [101.9032, 4.0966], [101.9034, 4.1016], [101.908, 4.1016], [101.9108, 4.1043], [101.9166, 4.1054], [101.9225, 4.0983], [101.924, 4.0992], [101.9253, 4.0981], [101.9279, 4.0908], [101.933, 4.0895], [101.9358, 4.092], [101.9399, 4.0895], [101.9438, 4.0913], [101.9513, 4.0892], [101.9476, 4.0812], [101.9495, 4.0781], [101.9551, 4.0778], [101.9553, 4.0765], [101.9515, 4.0732], [101.9459, 4.0592], [101.9466, 4.0535], [101.9448, 4.0486], [101.9427, 4.047], [101.9422, 4.0428], [101.9389, 4.0379], [101.9459, 4.0297], [101.9478, 4.0198], [101.9584, 4.0137], [101.9582, 4.0097], [101.9633, 4.0009], [101.9618, 3.9895], [101.9526, 3.9855], [101.9513, 3.9833], [101.9516, 3.9776], [101.9447, 3.9739], [101.9443, 3.9699], [101.938, 3.9675], [101.9351, 3.9691], [101.9317, 3.9676], [101.9321, 3.9653], [101.9277, 3.9598], [101.9323, 3.9567], [101.9319, 3.9534], [101.9281, 3.9509], [101.9265, 3.9468], [101.9337, 3.9447], [101.939, 3.9461], [101.94, 3.9426], [101.9439, 3.9416], [101.9466, 3.9384], [101.9484, 3.9329], [101.954, 3.9319], [101.9559, 3.9286], [101.9555, 3.9227], [101.9577, 3.922], [101.9607, 3.9243], [101.966, 3.922], [101.9721, 3.9231], [101.9733, 3.9265], [101.9831, 3.9289], [101.9896, 3.9349], [101.9908, 3.9425], [101.9984, 3.9516], [101.9985, 3.9579], [102.0077, 3.9718], [102.0123, 3.975], [102.0181, 3.9829], [102.0289, 3.9858], [102.0338, 3.9818], [102.039, 3.972], [102.0452, 3.9703], [102.0509, 3.9725], [102.0547, 3.9768], [102.062, 3.9726], [102.0616, 3.9613], [102.0661, 3.9494], [102.0644, 3.9462], [102.0696, 3.9396], [102.0776, 3.9347], [102.0787, 3.9324], [102.0763, 3.9289], [102.079, 3.9264], [102.0817, 3.9262], [102.0809, 3.9227], [102.0839, 3.9188], [102.0969, 3.9105], [102.0938, 3.9053], [102.0909, 3.8957], [102.0907, 3.8878], [102.0881, 3.8829], [102.0904, 3.8762], [102.0854, 3.8723], [102.0839, 3.8618], [102.0803, 3.8594], [102.0798, 3.8543], [102.0757, 3.8517], [102.0818, 3.8471], [102.0831, 3.8444], [102.0896, 3.8427], [102.0926, 3.8397], [102.1018, 3.8395], [102.1087, 3.8335], [102.1064, 3.83], [102.095, 3.8256], [102.0919, 3.8204], [102.0959, 3.814], [102.0933, 3.7996], [102.0968, 3.7917], [102.0958, 3.7854], [102.0929, 3.7825], [102.0958, 3.7744], [102.0917, 3.7672], [102.0872, 3.7657], [102.082, 3.7585], [102.0832, 3.7463], [102.0787, 3.7428], [102.0682, 3.7397], [102.0614, 3.7326], [102.0585, 3.7262], [102.0606, 3.7216], [102.0548, 3.7156], [102.0538, 3.7109], [102.0485, 3.7095], [102.0446, 3.7105], [102.0385, 3.708], [102.0388, 3.7002], [102.0337, 3.6923], [102.0365, 3.6879], [102.0444, 3.6834], [102.0439, 3.6778], [102.0391, 3.6736], [102.0427, 3.6662], [102.0411, 3.6609], [102.047, 3.6547], [102.0543, 3.6426], [102.0484, 3.6365], [102.0461, 3.6363], [102.0406, 3.6401], [102.0339, 3.6383], [102.0334, 3.6368], [102.037, 3.6325], [102.0351, 3.6292], [102.0237, 3.6241], [102.0173, 3.6104], [102.0239, 3.6092], [102.0215, 3.6053], [102.025, 3.6022], [102.0286, 3.5917], [102.021, 3.5764], [102.0214, 3.5723], [102.0146, 3.5694], [102.0161, 3.5648], [102.0139, 3.5608], [102.0077, 3.5619], [102.0022, 3.57], [101.9907, 3.567], [101.9897, 3.57], [101.9864, 3.571], [101.9846, 3.5709], [101.9858, 3.5649], [101.9832, 3.5643], [101.9835, 3.5619], [101.9764, 3.5593], [101.9698, 3.5695], [101.9753, 3.572], [101.9752, 3.5737], [101.9705, 3.5771], [101.9704, 3.5798], [101.9645, 3.5814], [101.9626, 3.585], [101.9642, 3.5884], [101.9533, 3.5951], [101.9544, 3.5989], [101.9497, 3.6051], [101.9459, 3.6177], [101.947, 3.6199], [101.9437, 3.6195], [101.945, 3.6251], [101.9439, 3.6274], [101.9459, 3.6292], [101.9461, 3.6336], [101.9427, 3.6397], [101.939, 3.6416], [101.9401, 3.646], [101.9375, 3.6487], [101.9386, 3.6564], [101.9367, 3.6581], [101.9328, 3.6581], [101.9258, 3.6652], [101.9157, 3.6609], [101.9136, 3.6627], [101.9099, 3.6619], [101.9074, 3.6659], [101.9026, 3.6676], [101.9013, 3.6647], [101.8961, 3.6633], [101.8908, 3.6711], [101.8867, 3.6818], [101.8847, 3.6825], [101.8843, 3.6808], [101.8819, 3.6849], [101.8813, 3.6833], [101.8803, 3.6839], [101.8795, 3.6879], [101.8754, 3.6893], [101.8754, 3.6953], [101.8629, 3.6914], [101.8661, 3.6781], [101.8738, 3.6681], [101.8754, 3.6623], [101.8811, 3.653], [101.8673, 3.6431], [101.8526, 3.6356], [101.8459, 3.6379], [101.8426, 3.6374], [101.8386, 3.641], [101.8369, 3.6402], [101.8233, 3.6312], [101.8196, 3.6236], [101.8213, 3.6213], [101.8205, 3.6202], [101.8128, 3.6215], [101.8095, 3.6196], [101.8083, 3.6159], [101.8027, 3.6158], [101.7994, 3.6183], [101.7954, 3.6277], [101.7857, 3.6327], [101.784, 3.6351], [101.7833, 3.6514], [101.7724, 3.6645], [101.767, 3.668], [101.7699, 3.6745], [101.7665, 3.6799], [101.7661, 3.6846], [101.7546, 3.6878], [101.7473, 3.6968], [101.7397, 3.7007], [101.7363, 3.7085], [101.7367, 3.7127], [101.7239, 3.7137], [101.7195, 3.7102], [101.7146, 3.7108], [101.7086, 3.7141], [101.7064, 3.7119], [101.7011, 3.7135], [101.6893, 3.7115], [101.6856, 3.7134], [101.6773, 3.7233], [101.6709, 3.7238], [101.6539, 3.729], [101.6514, 3.7377], [101.6435, 3.7461], [101.6415, 3.7519], [101.6367, 3.7561], [101.6268, 3.7706], [101.6251, 3.7745], [101.6265, 3.7785], [101.6239, 3.7797], [101.6237, 3.783], [101.616, 3.7912], [101.6135, 3.7961], [101.6029, 3.7971], [101.5928, 3.8032], [101.5982, 3.8143], [101.5976, 3.8251], [101.596, 3.8305], [101.5907, 3.8364], [101.5975, 3.8427], [101.6017, 3.8442], [101.6028, 3.8491], [101.5993, 3.857], [101.6056, 3.876], [101.6011, 3.8827], [101.5804, 3.8984], [101.5772, 3.9047], [101.5799, 3.9095], [101.5728, 3.916], [101.5786, 3.9241], [101.5752, 3.9303], [101.5761, 3.9354], [101.572, 3.944], [101.5746, 3.9437], [101.5784, 3.9469], [101.5734, 3.9516], [101.5791, 3.9584], [101.5761, 3.9623], [101.5773, 3.9651], [101.574, 3.9667], [101.5748, 3.9815], [101.5705, 3.9893], [101.5733, 4], [101.5633, 4.0041], [101.5619, 4.0096], [101.5581, 4.0121], [101.5553, 4.0278], [101.5564, 4.0312], [101.5616, 4.0353], [101.5615, 4.0394], [101.5651, 4.044], [101.5708, 4.0579], [101.5761, 4.063], [101.5763, 4.0684], [101.5796, 4.0716], [101.5805, 4.0751], [101.5884, 4.0789], [101.5952, 4.0759], [101.5979, 4.0766], [101.5986, 4.0788], [101.6054, 4.0789], [101.6096, 4.0817], [101.6142, 4.081], [101.618, 4.085], [101.6216, 4.0854], [101.6236, 4.0937], [101.6274, 4.095], [101.6306, 4.0942], [101.6377, 4.0866], [101.642, 4.0864], [101.6585, 4.0794], [101.6696, 4.0766], [101.6793, 4.079], [101.6884, 4.0715], [101.6933, 4.0732], [101.7011, 4.073], [101.7048, 4.077], [101.7067, 4.0842], [101.7136, 4.0923], [101.7143, 4.0958], [101.7175, 4.0951], [101.7225, 4.0966], [101.7249, 4.0943], [101.7392, 4.1042], [101.7357, 4.1133], [101.7395, 4.1171], [101.7416, 4.1151], [101.7502, 4.1162], [101.7561, 4.1074], [101.7696, 4.0996], [101.7716, 4.0852], [101.7783, 4.0842]], [[101.8424, 3.8138], [101.8424, 3.8139], [101.8424, 3.8138], [101.8424, 3.8138]]]]}}, {"type": "Feature", "properties": {"district": "Temerloh"}, "geometry": {"type": "MultiPolygon", "coordinates": [[[[102.2022, 3.8659], [102.2048, 3.8647], [102.2052, 3.8617], [102.2036, 3.8599], [102.1986, 3.8591], [102.1967, 3.8564], [102.197, 3.8323], [102.2131, 3.8346], [102.2143, 3.8498], [102.2109, 3.8575], [102.2434, 3.866], [102.2446, 3.8547], [102.24, 3.8495], [102.2399, 3.8349], [102.241, 3.8287], [102.2446, 3.826], [102.2511, 3.8257], [102.2557, 3.8299], [102.2646, 3.8301], [102.2678, 3.8329], [102.2726, 3.8325], [102.2832, 3.8403], [102.2872, 3.8414], [102.2956, 3.8353], [102.3001, 3.822], [102.301, 3.8125], [102.3073, 3.8016], [102.3146, 3.815], [102.3638, 3.8144], [102.3885, 3.7657], [102.3922, 3.7546], [102.3959, 3.7541], [102.3985, 3.7515], [102.4061, 3.7564], [102.4088, 3.7456], [102.4183, 3.7429], [102.4208, 3.7384], [102.4235, 3.7383], [102.4255, 3.7405], [102.4277, 3.7395], [102.4302, 3.7423], [102.4391, 3.7387], [102.4414, 3.7361], [102.4392, 3.7323], [102.442, 3.7301], [102.4416, 3.7262], [102.4392, 3.723], [102.4464, 3.7216], [102.4496, 3.717], [102.4542, 3.7186], [102.4547, 3.7234], [102.4579, 3.7244], [102.4609, 3.7227], [102.4621, 3.7178], [102.4673, 3.7205], [102.4721, 3.7175], [102.4704, 3.7111], [102.4643, 3.7086], [102.4644, 3.7048], [102.4675, 3.6965], [102.474, 3.6941], [102.4764, 3.689], [102.4807, 3.6869], [102.478, 3.6825], [102.4814, 3.6765], [102.4775, 3.6728], [102.4798, 3.6695], [102.4825, 3.6686], [102.4834, 3.6664], [102.4821, 3.6624], [102.4841, 3.6565], [102.4819, 3.6542], [102.4821, 3.6513], [102.4797, 3.6509], [102.4765, 3.6475], [102.4884, 3.6346], [102.4876, 3.632], [102.4888, 3.6282], [102.4913, 3.6267], [102.4906, 3.6238], [102.4918, 3.623], [102.4906, 3.623], [102.4888, 3.6148], [102.4844, 3.6126], [102.4847, 3.607], [102.487, 3.6074], [102.4886, 3.6054], [102.4869, 3.6016], [102.4823, 3.5997], [102.4821, 3.5964], [102.4803, 3.5957], [102.483, 3.5897], [102.4844, 3.5912], [102.4876, 3.5892], [102.4914, 3.5903], [102.4909, 3.5872], [102.4941, 3.5812], [102.4937, 3.5771], [102.4904, 3.5727], [102.4949, 3.5629], [102.4924, 3.5581], [102.4941, 3.5475], [102.4905, 3.5434], [102.4886, 3.5344], [102.4862, 3.5315], [102.4877, 3.5153], [102.4856, 3.5112], [102.487, 3.5058], [102.4905, 3.5041], [102.4934, 3.5002], [102.5056, 3.4766], [102.5043, 3.4701], [102.503, 3.4164], [102.482, 3.417], [102.473, 3.3656], [102.4673, 3.3674], [102.4627, 3.3661], [102.4608, 3.3691], [102.4585, 3.3674], [102.4278, 3.367], [102.4151, 3.3678], [102.41, 3.3703], [102.392, 3.3698], [102.3802, 3.3725], [102.3739, 3.3714], [102.3708, 3.3789], [102.3642, 3.3817], [102.3605, 3.3808], [102.3574, 3.3736], [102.3495, 3.3694], [102.3443, 3.374], [102.3369, 3.3739], [102.327, 3.3767], [102.3259, 3.3736], [102.3198, 3.3686], [102.319, 3.3587], [102.3155, 3.3549], [102.3148, 3.3561], [102.3058, 3.3566], [102.3024, 3.3635], [102.2918, 3.3602], [102.2872, 3.3648], [102.2826, 3.3645], [102.2774, 3.3682], [102.274, 3.3647], [102.2723, 3.3652], [102.2618, 3.3708], [102.2595, 3.3768], [102.2512, 3.3795], [102.2442, 3.3775], [102.2394, 3.3897], [102.2363, 3.3926], [102.2314, 3.3909], [102.228, 3.3923], [102.2276, 3.388], [102.2184, 3.3868], [102.211, 3.3763], [102.2058, 3.377], [102.2037, 3.3741], [102.2008, 3.3733], [102.1957, 3.3774], [102.1908, 3.3732], [102.1877, 3.3728], [102.1854, 3.3746], [102.1788, 3.3699], [102.1691, 3.3686], [102.1664, 3.3629], [102.1483, 3.3633], [102.144, 3.3582], [102.1405, 3.3575], [102.1407, 3.3533], [102.1353, 3.3476], [102.1318, 3.3529], [102.1265, 3.3532], [102.1199, 3.3458], [102.1182, 3.346], [102.1178, 3.3516], [102.1134, 3.3587], [102.1133, 3.3635], [102.1101, 3.3652], [102.1094, 3.3743], [102.1073, 3.3757], [102.1066, 3.3791], [102.1078, 3.3828], [102.0994, 3.3863], [102.0965, 3.3977], [102.0979, 3.4014], [102.0962, 3.4076], [102.098, 3.4101], [102.0952, 3.4224], [102.0966, 3.4254], [102.1032, 3.4306], [102.1033, 3.4357], [102.1014, 3.4392], [102.103, 3.4456], [102.1073, 3.4517], [102.1048, 3.4541], [102.105, 3.4791], [102.0926, 3.4901], [102.0862, 3.488], [102.0858, 3.4961], [102.0846, 3.4969], [102.0602, 3.4977], [102.0564, 3.5026], [102.0573, 3.5064], [102.0608, 3.51], [102.0595, 3.5142], [102.052, 3.5225], [102.0441, 3.5362], [102.0402, 3.5348], [102.0405, 3.5413], [102.036, 3.5448], [102.0267, 3.5656], [102.0214, 3.5657], [102.0192, 3.5604], [102.0188, 3.5524], [102.0144, 3.5572], [102.0126, 3.5603], [102.0161, 3.5648], [102.0146, 3.5694], [102.0214, 3.5723], [102.021, 3.5764], [102.0286, 3.5917], [102.025, 3.6022], [102.0215, 3.6053], [102.0239, 3.6092], [102.0173, 3.6104], [102.0237, 3.6241], [102.0351, 3.6292], [102.037, 3.6325], [102.0334, 3.6368], [102.0339, 3.6383], [102.0406, 3.6401], [102.0461, 3.6363], [102.0484, 3.6365], [102.0543, 3.6426], [102.047, 3.6547], [102.0411, 3.6609], [102.0427, 3.6662], [102.0391, 3.6736], [102.0439, 3.6778], [102.0444, 3.6834], [102.0348, 3.6894], [102.0339, 3.6936], [102.0388, 3.7002], [102.0389, 3.7087], [102.0446, 3.7105], [102.0528, 3.71], [102.0551, 3.7127], [102.0548, 3.7156], [102.0606, 3.7216], [102.0585, 3.7262], [102.0623, 3.7337], [102.0682, 3.7397], [102.0787, 3.7428], [102.0839, 3.7477], [102.082, 3.7585], [102.0872, 3.7657], [102.0917, 3.7672], [102.0958, 3.7744], [102.0929, 3.7825], [102.0958, 3.7854], [102.0968, 3.7917], [102.0934, 3.7989], [102.096, 3.8124], [102.0921, 3.8192], [102.0933, 3.8236], [102.1008, 3.8288], [102.1064, 3.83], [102.1087, 3.8335], [102.1166, 3.8345], [102.1214, 3.8396], [102.1223, 3.8445], [102.1258, 3.8471], [102.1344, 3.8482], [102.1401, 3.8457], [102.1462, 3.8488], [102.1496, 3.8534], [102.1573, 3.854], [102.161, 3.8573], [102.1716, 3.8595], [102.1779, 3.8572], [102.1828, 3.8619], [102.1852, 3.8594], [102.1892, 3.8591], [102.1983, 3.8679], [102.2022, 3.8659]]]]}}, {"type": "Feature", "properties": {"district": "Rompin"}, "geometry": {"type": "MultiPolygon", "coordinates": [[[[102.7392, 3.3788], [102.7442, 3.3788], [102.7488, 3.3807], [102.7556, 3.3789], [102.7734, 3.3655], [102.7821, 3.3694], [102.7871, 3.3663], [102.791, 3.3734], [102.7975, 3.3711], [102.8019, 3.3717], [102.8086, 3.3758], [102.8159, 3.3709], [102.8229, 3.3773], [102.8261, 3.3773], [102.827, 3.3723], [102.8224, 3.3642], [102.8237, 3.3597], [102.835, 3.3467], [102.843, 3.3298], [102.8467, 3.3272], [102.8505, 3.3197], [102.8532, 3.3182], [102.8564, 3.3187], [102.861, 3.3146], [102.8607, 3.3102], [102.8723, 3.2997], [102.8733, 3.2962], [102.8788, 3.294], [102.8794, 3.2891], [102.8837, 3.2871], [102.8848, 3.284], [102.8875, 3.2823], [102.888, 3.2763], [102.8966, 3.279], [102.9032, 3.2758], [102.9043, 3.2721], [102.9102, 3.2697], [102.9121, 3.2695], [102.9139, 3.2722], [102.9204, 3.2724], [102.9187, 3.2762], [102.921, 3.2791], [102.9215, 3.2834], [102.9259, 3.2859], [102.9259, 3.2894], [102.9313, 3.3036], [102.9312, 3.3089], [102.9351, 3.3105], [102.9372, 3.3099], [102.9365, 3.3076], [102.9453, 3.3077], [102.9512, 3.3118], [102.9537, 3.3164], [102.9537, 3.3126], [102.9562, 3.3082], [102.9551, 3.3018], [102.9585, 3.2996], [102.959, 3.2934], [102.9676, 3.2918], [102.9661, 3.2873], [102.9705, 3.2845], [102.9716, 3.2808], [102.9746, 3.2783], [102.9804, 3.2774], [102.9837, 3.2822], [102.986, 3.2826], [102.988, 3.281], [102.9925, 3.2822], [102.9932, 3.2845], [103.004, 3.2903], [103.0082, 3.2885], [103.0092, 3.2851], [103.0194, 3.2868], [103.0202, 3.2887], [103.0187, 3.2914], [103.0201, 3.294], [103.0256, 3.2976], [103.0289, 3.2959], [103.0304, 3.2982], [103.0339, 3.2977], [103.0426, 3.3099], [103.0453, 3.3094], [103.0463, 3.3135], [103.0518, 3.3169], [103.0552, 3.3153], [103.0611, 3.3244], [103.0635, 3.326], [103.0684, 3.322], [103.0705, 3.3155], [103.0743, 3.3106], [103.078, 3.2942], [103.0761, 3.2885], [103.0773, 3.2865], [103.0734, 3.2812], [103.0737, 3.2777], [103.0819, 3.2702], [103.0833, 3.2651], [103.086, 3.2675], [103.0888, 3.2676], [103.0871, 3.2631], [103.0906, 3.2629], [103.0889, 3.2587], [103.0897, 3.2559], [103.1003, 3.2525], [103.1034, 3.2494], [103.1053, 3.2412], [103.1112, 3.2406], [103.1122, 3.2394], [103.1085, 3.2308], [103.1093, 3.2283], [103.1147, 3.2271], [103.1156, 3.2229], [103.1187, 3.2196], [103.1256, 3.2164], [103.1271, 3.2132], [103.1265, 3.2083], [103.1283, 3.2054], [103.1168, 3.1921], [103.1161, 3.189], [103.1206, 3.1881], [103.1236, 3.1837], [103.1231, 3.1769], [103.1198, 3.1744], [103.1172, 3.1663], [103.123, 3.1646], [103.1244, 3.1627], [103.1207, 3.1619], [103.1158, 3.1574], [103.1128, 3.1566], [103.1129, 3.1536], [103.1088, 3.1499], [103.1028, 3.1493], [103.1013, 3.1453], [103.1069, 3.1371], [103.1102, 3.1259], [103.1091, 3.122], [103.1053, 3.1223], [103.1019, 3.1188], [103.0999, 3.1187], [103.0955, 3.1226], [103.0897, 3.1212], [103.0874, 3.1186], [103.0814, 3.1181], [103.0721, 3.1076], [103.0674, 3.1063], [103.0661, 3.103], [103.0681, 3.0984], [103.0792, 3.0977], [103.0804, 3.0841], [103.1088, 3.0832], [103.1192, 3.0656], [103.131, 3.0657], [103.1311, 3.0557], [103.136, 3.0557], [103.136, 3.0167], [103.1156, 3.0167], [103.1187, 3.0054], [103.1282, 3], [103.1249, 2.9902], [103.1442, 2.9893], [103.1497, 2.9839], [103.1532, 2.986], [103.1587, 2.9778], [103.1601, 2.9717], [103.1585, 2.9677], [103.1626, 2.9635], [103.165, 2.963], [103.1634, 2.9588], [103.1646, 2.9586], [103.211, 2.9643], [103.2349, 2.9657], [103.3655, 2.9637], [103.4277, 2.947], [103.4369, 2.9084], [103.4512, 2.8683], [103.4783, 2.8254], [103.4955, 2.8078], [103.5196, 2.7755], [103.5271, 2.7694], [103.5451, 2.748], [103.554, 2.7423], [103.5553, 2.7391], [103.5657, 2.7281], [103.6129, 2.6847], [103.63, 2.6637], [103.632, 2.6587], [103.6176, 2.6522], [103.6143, 2.6528], [103.6096, 2.6576], [103.603, 2.6609], [103.5951, 2.6611], [103.5894, 2.6567], [103.5873, 2.6504], [103.593, 2.6337], [103.595, 2.6319], [103.5999, 2.6311], [103.6034, 2.6336], [103.6036, 2.6356], [103.5995, 2.6428], [103.5995, 2.6462], [103.6037, 2.6497], [103.6107, 2.6512], [103.6133, 2.6444], [103.6105, 2.6329], [103.6184, 2.6303], [103.6206, 2.6278], [103.62, 2.625], [103.6133, 2.6219], [103.6118, 2.6192], [103.613, 2.6151], [103.6236, 2.6073], [103.6246, 2.6033], [103.6127, 2.5989], [103.6102, 2.5935], [103.6122, 2.5906], [103.6208, 2.5898], [103.6232, 2.5861], [103.6201, 2.5826], [103.6099, 2.5855], [103.6054, 2.5846], [103.5988, 2.5772], [103.5972, 2.5695], [103.5977, 2.5667], [103.6013, 2.5647], [103.6039, 2.5666], [103.6069, 2.5725], [103.6095, 2.5749], [103.6121, 2.5746], [103.6142, 2.5724], [103.6143, 2.5639], [103.6164, 2.5583], [103.6149, 2.5541], [103.6128, 2.5535], [103.609, 2.5621], [103.6048, 2.5603], [103.5925, 2.5484], [103.5922, 2.5471], [103.5952, 2.5447], [103.5897, 2.5342], [103.5917, 2.5273], [103.5943, 2.5261], [103.6026, 2.5316], [103.6072, 2.5324], [103.6129, 2.5304], [103.6213, 2.5338], [103.6234, 2.5328], [103.6226, 2.5298], [103.6185, 2.5263], [103.6162, 2.5177], [103.6254, 2.5108], [103.6294, 2.5056], [103.6296, 2.491], [103.638, 2.4874], [103.6269, 2.4649], [103.617, 2.4621], [103.613, 2.4644], [103.6091, 2.4708], [103.6077, 2.468], [103.6089, 2.4586], [103.6077, 2.4578], [103.4717, 2.5266], [103.4603, 2.5404], [103.4526, 2.5467], [103.4387, 2.552], [103.4182, 2.5521], [103.3551, 2.5904], [103.2889, 2.578], [103.1483, 2.5203], [103.0773, 2.5534], [102.9717, 2.5939], [102.969, 2.5966], [102.9239, 2.646], [102.7943, 2.8035], [102.7813, 2.8076], [102.7796, 2.8186], [102.769, 2.8243], [102.7699, 2.8284], [102.7662, 2.8344], [102.7617, 2.8334], [102.7535, 2.841], [102.7506, 2.8464], [102.7535, 2.8516], [102.7519, 2.8562], [102.7429, 2.8569], [102.7389, 2.8639], [102.7417, 2.8696], [102.7403, 2.8751], [102.7432, 2.8815], [102.7488, 2.8877], [102.7509, 2.8956], [102.745, 2.9089], [102.7521, 2.9175], [102.7568, 2.9144], [102.7591, 2.9175], [102.7567, 2.9298], [102.7579, 2.9369], [102.7556, 2.9411], [102.7547, 2.9479], [102.7563, 2.9528], [102.7549, 2.957], [102.7563, 2.9621], [102.7546, 2.9633], [102.7568, 2.9692], [102.7545, 2.9725], [102.7582, 2.9819], [102.7584, 2.9863], [102.7561, 2.9906], [102.7617, 2.9952], [102.7638, 2.9985], [102.763, 3.0022], [102.7694, 3.0071], [102.7713, 3.0134], [102.7752, 3.0147], [102.7791, 3.0274], [102.7784, 3.0307], [102.7859, 3.0464], [102.7852, 3.0494], [102.7806, 3.049], [102.773, 3.0519], [102.7668, 3.0578], [102.7609, 3.0552], [102.7555, 3.0673], [102.7591, 3.0722], [102.757, 3.0767], [102.7478, 3.0806], [102.7459, 3.0773], [102.743, 3.0819], [102.7412, 3.1024], [102.7512, 3.1087], [102.751, 3.1126], [102.7479, 3.113], [102.7468, 3.1159], [102.7467, 3.1207], [102.7493, 3.1246], [102.7467, 3.1272], [102.7405, 3.1224], [102.7348, 3.1202], [102.7344, 3.1171], [102.7326, 3.1165], [102.7238, 3.1215], [102.7324, 3.1354], [102.7308, 3.1469], [102.7365, 3.1529], [102.7425, 3.1542], [102.7508, 3.1484], [102.7527, 3.1455], [102.7576, 3.1455], [102.7758, 3.1606], [102.7909, 3.1678], [102.8015, 3.1704], [102.8031, 3.1723], [102.797, 3.1826], [102.7768, 3.1985], [102.7757, 3.2016], [102.769, 3.2058], [102.7555, 3.2068], [102.7525, 3.2092], [102.748, 3.2194], [102.7366, 3.2205], [102.7348, 3.2275], [102.7308, 3.2329], [102.7302, 3.2438], [102.7265, 3.2468], [102.7261, 3.2535], [102.7215, 3.256], [102.7179, 3.2624], [102.7102, 3.2595], [102.7056, 3.2613], [102.701, 3.2681], [102.6969, 3.2804], [102.6985, 3.2903], [102.695, 3.2988], [102.7005, 3.3012], [102.7041, 3.3068], [102.7036, 3.3125], [102.7011, 3.3165], [102.7033, 3.3188], [102.7152, 3.3204], [102.7203, 3.3291], [102.7269, 3.3342], [102.7264, 3.3486], [102.7293, 3.3572], [102.7285, 3.3709], [102.7349, 3.3811], [102.7392, 3.3788]]], [[[104.1706, 2.897], [104.1804, 2.8928], [104.1793, 2.8878], [104.1804, 2.8834], [104.1896, 2.8763], [104.1847, 2.875], [104.1846, 2.8701], [104.1898, 2.8675], [104.1859, 2.8642], [104.1929, 2.853], [104.1923, 2.8433], [104.198, 2.8344], [104.1943, 2.8318], [104.2005, 2.8284], [104.2012, 2.8268], [104.1988, 2.8246], [104.199, 2.8228], [104.2027, 2.8214], [104.2049, 2.8153], [104.2097, 2.8109], [104.2073, 2.8083], [104.2075, 2.8051], [104.2152, 2.7998], [104.2141, 2.7976], [104.2066, 2.7987], [104.2035, 2.7914], [104.2059, 2.781], [104.2081, 2.7797], [104.21, 2.7812], [104.2144, 2.7781], [104.2208, 2.7763], [104.2203, 2.7744], [104.2238, 2.7671], [104.2233, 2.7637], [104.221, 2.7616], [104.2219, 2.756], [104.2168, 2.7488], [104.2159, 2.7448], [104.2214, 2.7375], [104.2192, 2.7372], [104.2204, 2.7339], [104.2174, 2.7294], [104.2167, 2.7228], [104.2127, 2.7197], [104.2051, 2.7177], [104.2004, 2.7201], [104.1848, 2.722], [104.1679, 2.7158], [104.1585, 2.7171], [104.1511, 2.7209], [104.1316, 2.7411], [104.1224, 2.7455], [104.1204, 2.7499], [104.123, 2.7617], [104.1208, 2.7721], [104.118, 2.7767], [104.118, 2.7819], [104.1211, 2.7881], [104.1279, 2.7956], [104.1295, 2.8014], [104.1469, 2.8111], [104.1475, 2.8133], [104.1577, 2.818], [104.1638, 2.8259], [104.1646, 2.8301], [104.1611, 2.8339], [104.1599, 2.8465], [104.1492, 2.8559], [104.1523, 2.859], [104.1499, 2.8616], [104.1551, 2.8634], [104.148, 2.8668], [104.1465, 2.8698], [104.1499, 2.8746], [104.1549, 2.8751], [104.1561, 2.8815], [104.1543, 2.887], [104.1567, 2.8934], [104.1621, 2.8936], [104.1706, 2.897]]], [[[103.9745, 2.6998], [103.9788, 2.7021], [103.9829, 2.6967], [103.9878, 2.6978], [103.9936, 2.6955], [103.9932, 2.6751], [103.9882, 2.6733], [103.9804, 2.6852], [103.9788, 2.6827], [103.9811, 2.6806], [103.9817, 2.6742], [103.9754, 2.6766], [103.9762, 2.6831], [103.9721, 2.6986], [103.9734, 2.7024], [103.9745, 2.6998]]], [[[103.9595, 2.7013], [103.9637, 2.6984], [103.9661, 2.6995], [103.9648, 2.6958], [103.9671, 2.691], [103.9658, 2.6884], [103.9644, 2.69], [103.9611, 2.684], [103.9596, 2.6828], [103.957, 2.6846], [103.9569, 2.6826], [103.9517, 2.6883], [103.951, 2.6991], [103.9569, 2.7024], [103.9595, 2.7013]]], [[[104.1071, 2.9151], [104.1092, 2.9146], [104.1123, 2.9166], [104.1149, 2.9122], [104.1028, 2.9056], [104.0992, 2.9084], [104.0983, 2.9112], [104.1048, 2.9109], [104.1065, 2.9124], [104.1023, 2.9164], [104.1015, 2.9193], [104.1051, 2.919], [104.105, 2.917], [104.1071, 2.9151]]], [[[104.0324, 2.7838], [104.0318, 2.783], [104.0304, 2.7841], [104.0324, 2.7852], [104.0324, 2.7838]]]]}}, {"type": "Feature", "properties": {"district": "Maran"}, "geometry": {"type": "MultiPolygon", "coordinates": [[[[102.499, 3.8731], [102.4986, 3.8651], [102.502, 3.851], [102.5129, 3.8279], [102.5306, 3.8409], [102.5483, 3.8512], [102.5538, 3.8513], [102.5567, 3.8498], [102.5624, 3.8343], [102.5721, 3.8363], [102.5747, 3.8399], [102.5797, 3.842], [102.583, 3.8456], [102.5858, 3.8438], [102.6173, 3.8536], [102.6229, 3.8526], [102.6232, 3.8417], [102.6311, 3.8526], [102.6396, 3.8525], [102.6419, 3.8496], [102.6486, 3.8524], [102.655, 3.8507], [102.6549, 3.8472], [102.6604, 3.8447], [102.6712, 3.8462], [102.6838, 3.8394], [102.6886, 3.8397], [102.7084, 3.8344], [102.712, 3.8271], [102.709, 3.8182], [102.7113, 3.8117], [102.7223, 3.8055], [102.7273, 3.7981], [102.7292, 3.7979], [102.7341, 3.7925], [102.7369, 3.7877], [102.737, 3.7777], [102.7479, 3.7609], [102.757, 3.7553], [102.7579, 3.7494], [102.7633, 3.7498], [102.7685, 3.7572], [102.784, 3.7582], [102.7899, 3.7607], [102.7931, 3.7652], [102.7949, 3.7652], [102.7973, 3.7619], [102.8007, 3.7618], [102.8007, 3.7563], [102.8039, 3.7534], [102.7999, 3.7421], [102.8014, 3.734], [102.8109, 3.7231], [102.8276, 3.7153], [102.8248, 3.7023], [102.8259, 3.6992], [102.8307, 3.6985], [102.8334, 3.7034], [102.8401, 3.7064], [102.8436, 3.7101], [102.8449, 3.7164], [102.8481, 3.72], [102.8599, 3.7208], [102.8656, 3.7167], [102.87, 3.7174], [102.8742, 3.7095], [102.888, 3.695], [102.8935, 3.6938], [102.8945, 3.6887], [102.892, 3.6842], [102.8929, 3.6808], [102.901, 3.6786], [102.9006, 3.675], [102.9046, 3.6749], [102.9102, 3.6712], [102.9151, 3.6637], [102.9192, 3.6604], [102.9167, 3.651], [102.9128, 3.6466], [102.9159, 3.6437], [102.9184, 3.6369], [102.9182, 3.6317], [102.9139, 3.6227], [102.9137, 3.6153], [102.9197, 3.6031], [102.9207, 3.5951], [102.9159, 3.5857], [102.9122, 3.5844], [102.8997, 3.5696], [102.8978, 3.5596], [102.9012, 3.5478], [102.8978, 3.5406], [102.8922, 3.5349], [102.8825, 3.5329], [102.8788, 3.5285], [102.8786, 3.5251], [102.8659, 3.5273], [102.8649, 3.525], [102.8671, 3.5132], [102.8627, 3.5095], [102.8637, 3.5053], [102.8611, 3.502], [102.8624, 3.499], [102.8592, 3.4928], [102.849, 3.4795], [102.8434, 3.4785], [102.8337, 3.4818], [102.8293, 3.4776], [102.8243, 3.4768], [102.8222, 3.4739], [102.8191, 3.4731], [102.8183, 3.4687], [102.8228, 3.4655], [102.8224, 3.4604], [102.8176, 3.4577], [102.8125, 3.4592], [102.8104, 3.4606], [102.808, 3.468], [102.7975, 3.4712], [102.7873, 3.4682], [102.7914, 3.4602], [102.7897, 3.4588], [102.7728, 3.4592], [102.7715, 3.4534], [102.7734, 3.4499], [102.7702, 3.4461], [102.7761, 3.4414], [102.7761, 3.437], [102.7743, 3.4353], [102.7784, 3.4324], [102.7759, 3.4253], [102.7963, 3.4129], [102.7968, 3.4105], [102.7988, 3.41], [102.8019, 3.4013], [102.8063, 3.3976], [102.8056, 3.392], [102.8076, 3.3892], [102.8206, 3.3824], [102.8294, 3.3798], [102.8282, 3.3787], [102.8229, 3.3773], [102.8159, 3.3709], [102.8086, 3.3758], [102.8019, 3.3717], [102.7975, 3.3711], [102.791, 3.3734], [102.7871, 3.3663], [102.7821, 3.3694], [102.7734, 3.3655], [102.7556, 3.3789], [102.7488, 3.3807], [102.7402, 3.3787], [102.7349, 3.3811], [102.7285, 3.3709], [102.7293, 3.3572], [102.7264, 3.3486], [102.7269, 3.3342], [102.7203, 3.3291], [102.7152, 3.3204], [102.7033, 3.3188], [102.7009, 3.3154], [102.691, 3.3164], [102.686, 3.3432], [102.6897, 3.3461], [102.69, 3.3483], [102.684, 3.3499], [102.6826, 3.3524], [102.6763, 3.3537], [102.6749, 3.3511], [102.6727, 3.3506], [102.6686, 3.3551], [102.6632, 3.3549], [102.6544, 3.3658], [102.6574, 3.3765], [102.6544, 3.3775], [102.6533, 3.3754], [102.6505, 3.3752], [102.6402, 3.3813], [102.6401, 3.3883], [102.634, 3.389], [102.6302, 3.3922], [102.6282, 3.3969], [102.6206, 3.3952], [102.6144, 3.3984], [102.6066, 3.3971], [102.6006, 3.393], [102.5926, 3.3937], [102.5894, 3.4039], [102.5815, 3.407], [102.5852, 3.411], [102.5872, 3.4239], [102.5913, 3.4308], [102.5897, 3.4362], [102.5805, 3.4421], [102.5727, 3.4554], [102.5545, 3.4549], [102.5521, 3.4536], [102.5472, 3.4568], [102.5387, 3.4569], [102.5371, 3.4613], [102.5316, 3.4582], [102.5284, 3.4612], [102.5216, 3.4625], [102.5155, 3.4585], [102.512, 3.4631], [102.5041, 3.4644], [102.5055, 3.4772], [102.4934, 3.5002], [102.4905, 3.5041], [102.487, 3.5058], [102.4856, 3.5112], [102.4877, 3.5153], [102.4862, 3.5315], [102.4886, 3.5344], [102.4905, 3.5434], [102.4941, 3.5475], [102.4924, 3.5581], [102.4949, 3.5629], [102.4904, 3.5727], [102.4937, 3.5771], [102.4941, 3.5812], [102.4909, 3.5872], [102.4914, 3.5903], [102.4876, 3.5892], [102.4844, 3.5912], [102.483, 3.5897], [102.4803, 3.5957], [102.4821, 3.5964], [102.4823, 3.5997], [102.4869, 3.6016], [102.4886, 3.6054], [102.487, 3.6074], [102.4847, 3.607], [102.4844, 3.6126], [102.4888, 3.6148], [102.4906, 3.623], [102.4918, 3.623], [102.4906, 3.6238], [102.4913, 3.6267], [102.4888, 3.6282], [102.4876, 3.632], [102.4884, 3.6346], [102.4765, 3.6475], [102.4797, 3.6509], [102.4821, 3.6513], [102.4819, 3.6542], [102.4841, 3.6565], [102.4821, 3.6624], [102.4834, 3.6664], [102.4825, 3.6686], [102.4798, 3.6695], [102.4775, 3.6728], [102.4814, 3.6765], [102.478, 3.6825], [102.4807, 3.6869], [102.4764, 3.689], [102.474, 3.6941], [102.4675, 3.6965], [102.4644, 3.7048], [102.4643, 3.7086], [102.4704, 3.7111], [102.4721, 3.7175], [102.4673, 3.7205], [102.4621, 3.7178], [102.4609, 3.7227], [102.4579, 3.7244], [102.4547, 3.7234], [102.4542, 3.7186], [102.4496, 3.717], [102.4464, 3.7216], [102.4392, 3.723], [102.4417, 3.7268], [102.442, 3.7301], [102.4392, 3.7323], [102.4413, 3.7351], [102.4409, 3.7374], [102.4319, 3.7422], [102.4277, 3.7395], [102.4256, 3.7404], [102.4383, 3.7537], [102.438, 3.7549], [102.43, 3.7558], [102.4291, 3.7574], [102.4419, 3.7611], [102.4447, 3.7638], [102.4431, 3.7657], [102.4456, 3.7697], [102.4425, 3.7752], [102.4362, 3.7739], [102.4501, 3.7834], [102.4522, 3.7892], [102.4576, 3.7956], [102.4514, 3.8035], [102.4527, 3.8123], [102.4553, 3.8179], [102.4646, 3.8266], [102.4768, 3.8521], [102.4787, 3.8589], [102.4779, 3.8626], [102.4701, 3.8729], [102.4664, 3.8735], [102.4851, 3.8857], [102.4893, 3.8802], [102.497, 3.8782], [102.499, 3.8731]], [[102.6461, 3.6641], [102.6461, 3.6641], [102.6461, 3.6641], [102.6461, 3.6641]]]]}}, {"type": "Feature", "properties": {"district": "Bera"}, "geometry": {"type": "MultiPolygon", "coordinates": [[[[102.5145, 3.4589], [102.5161, 3.4585], [102.5216, 3.4625], [102.5284, 3.4612], [102.5316, 3.4582], [102.5371, 3.4613], [102.5387, 3.4569], [102.5472, 3.4568], [102.5521, 3.4536], [102.5545, 3.4549], [102.5727, 3.4554], [102.5805, 3.4421], [102.5897, 3.4362], [102.5913, 3.4308], [102.5872, 3.4239], [102.5852, 3.411], [102.5815, 3.407], [102.5894, 3.4039], [102.5926, 3.3937], [102.6006, 3.393], [102.6066, 3.3971], [102.6144, 3.3984], [102.6206, 3.3952], [102.6282, 3.3969], [102.6302, 3.3922], [102.634, 3.389], [102.6401, 3.3883], [102.6402, 3.3813], [102.6505, 3.3752], [102.6533, 3.3754], [102.6544, 3.3775], [102.6574, 3.3765], [102.6544, 3.3658], [102.6632, 3.3549], [102.6686, 3.3551], [102.6727, 3.3506], [102.6749, 3.3511], [102.6763, 3.3537], [102.6826, 3.3524], [102.684, 3.3499], [102.69, 3.3483], [102.6897, 3.3461], [102.686, 3.3432], [102.6902, 3.3186], [102.691, 3.3164], [102.7009, 3.3154], [102.704, 3.3108], [102.7024, 3.3031], [102.695, 3.2988], [102.6985, 3.2903], [102.6967, 3.2828], [102.701, 3.2681], [102.7067, 3.2605], [102.7102, 3.2595], [102.719, 3.262], [102.7215, 3.256], [102.7261, 3.2535], [102.7265, 3.2468], [102.7302, 3.2438], [102.7308, 3.2329], [102.7348, 3.2275], [102.7366, 3.2205], [102.748, 3.2194], [102.7525, 3.2092], [102.7555, 3.2068], [102.769, 3.2058], [102.7757, 3.2016], [102.7768, 3.1985], [102.797, 3.1826], [102.8024, 3.1742], [102.8031, 3.1723], [102.8015, 3.1704], [102.7909, 3.1678], [102.7758, 3.1606], [102.7576, 3.1455], [102.7527, 3.1455], [102.7508, 3.1484], [102.7417, 3.1544], [102.7348, 3.1517], [102.7303, 3.1451], [102.7324, 3.1354], [102.7238, 3.1215], [102.7326, 3.1165], [102.7344, 3.1171], [102.7348, 3.1202], [102.7405, 3.1224], [102.7467, 3.1272], [102.7485, 3.1255], [102.7493, 3.1246], [102.7467, 3.1207], [102.7471, 3.1139], [102.751, 3.1126], [102.7512, 3.1087], [102.7412, 3.1024], [102.743, 3.0819], [102.7459, 3.0773], [102.7478, 3.0806], [102.757, 3.0767], [102.7591, 3.0722], [102.7555, 3.0673], [102.7609, 3.0552], [102.7668, 3.0578], [102.773, 3.0519], [102.7856, 3.0485], [102.786, 3.0453], [102.7784, 3.0307], [102.7791, 3.0274], [102.7752, 3.0147], [102.7713, 3.0134], [102.7694, 3.0071], [102.763, 3.0022], [102.7638, 2.9985], [102.7617, 2.9952], [102.7561, 2.9906], [102.7584, 2.9863], [102.7582, 2.9819], [102.7545, 2.9725], [102.7568, 2.9692], [102.7546, 2.9633], [102.7563, 2.9621], [102.7549, 2.957], [102.7563, 2.9528], [102.7547, 2.9479], [102.7556, 2.9411], [102.7579, 2.9369], [102.7567, 2.9298], [102.7591, 2.9175], [102.7568, 2.9144], [102.7521, 2.9175], [102.745, 2.9089], [102.7509, 2.8956], [102.7488, 2.8877], [102.7432, 2.8815], [102.7403, 2.8751], [102.7417, 2.8696], [102.7389, 2.8639], [102.7429, 2.8569], [102.7519, 2.8562], [102.7535, 2.8516], [102.7506, 2.8464], [102.7535, 2.841], [102.7617, 2.8334], [102.7662, 2.8344], [102.7699, 2.8284], [102.769, 2.8243], [102.7796, 2.8186], [102.7813, 2.8076], [102.6993, 2.8329], [102.6951, 2.8321], [102.6974, 2.8353], [102.6924, 2.8429], [102.6947, 2.8449], [102.6941, 2.8481], [102.6961, 2.8523], [102.6939, 2.8537], [102.6945, 2.8582], [102.6929, 2.8597], [102.6923, 2.8772], [102.6904, 2.8776], [102.6897, 2.8806], [102.6874, 2.8788], [102.6881, 2.8836], [102.6844, 2.8857], [102.6846, 2.8886], [102.6806, 2.8921], [102.6798, 2.8956], [102.6753, 2.8976], [102.6741, 2.8936], [102.6663, 2.8854], [102.4663, 3.0195], [102.389, 3.1185], [102.2925, 3.1374], [102.2941, 3.1416], [102.2968, 3.1417], [102.301, 3.146], [102.3037, 3.1527], [102.3135, 3.1564], [102.3142, 3.1582], [102.3085, 3.1664], [102.3131, 3.1721], [102.3078, 3.1709], [102.294, 3.1726], [102.2886, 3.1775], [102.2845, 3.189], [102.2827, 3.1899], [102.2796, 3.1882], [102.2743, 3.1885], [102.2733, 3.191], [102.2784, 3.1956], [102.2786, 3.2], [102.2934, 3.2085], [102.2981, 3.2174], [102.2912, 3.2331], [102.2918, 3.2367], [102.297, 3.2403], [102.2987, 3.2476], [102.2912, 3.2552], [102.2976, 3.2661], [102.306, 3.2719], [102.3065, 3.2799], [102.3032, 3.2868], [102.3036, 3.2928], [102.3158, 3.2951], [102.32, 3.2983], [102.3207, 3.3011], [102.3227, 3.3015], [102.3243, 3.3078], [102.3287, 3.3109], [102.331, 3.3159], [102.3379, 3.3176], [102.3435, 3.3221], [102.3403, 3.3252], [102.335, 3.3224], [102.333, 3.3244], [102.3326, 3.3279], [102.3298, 3.3269], [102.3256, 3.3321], [102.3201, 3.3466], [102.3202, 3.3511], [102.3155, 3.3549], [102.319, 3.3587], [102.3198, 3.3686], [102.3259, 3.3736], [102.327, 3.3767], [102.3288, 3.377], [102.3369, 3.3739], [102.3443, 3.374], [102.3495, 3.3694], [102.3521, 3.37], [102.3574, 3.3736], [102.3605, 3.3808], [102.3642, 3.3817], [102.3708, 3.3789], [102.3739, 3.3714], [102.3802, 3.3725], [102.392, 3.3698], [102.41, 3.3703], [102.4151, 3.3678], [102.4278, 3.367], [102.4585, 3.3674], [102.4608, 3.3691], [102.4627, 3.3661], [102.4673, 3.3674], [102.473, 3.3656], [102.482, 3.417], [102.503, 3.4164], [102.5041, 3.4644], [102.512, 3.4631], [102.5145, 3.4589]]]]}}]}