{"type":"Feature","properties":{"state":"Pahang"},"geometry":{"type":"MultiPolygon","coordinates":[[[[103.9788,2.7021],[103.9829,2.6967],[103.9878,2.6978],[103.9936,2.6955],[103.9939,2.6761],[103.9898,2.673],[103.9818,2.6813],[103.9804,2.6852],[103.9788,2.6827],[103.9811,2.6806],[103.9817,2.6742],[103.9754,2.6766],[103.9762,2.6831],[103.9728,2.693],[103.9721,2.7008],[103.9738,2.7024],[103.9756,2.6996],[103.9772,2.7022],[103.9788,2.7021]]],[[[103.9637,2.6984],[103.9661,2.6995],[103.9648,2.6958],[103.9671,2.691],[103.9666,2.6887],[103.9644,2.69],[103.9626,2.6854],[103.9596,2.6828],[103.957,2.6846],[103.9569,2.6826],[103.9553,2.6833],[103.9517,2.6883],[103.9523,2.6924],[103.9507,2.6921],[103.9516,2.7003],[103.9527,2.6997],[103.9569,2.7024],[103.9637,2.6984]]],[[[104.0304,2.7841],[104.0318,2.7853],[104.0328,2.7847],[104.0318,2.783],[104.0304,2.7841]]],[[[104.1737,2.8965],[104.1759,2.8938],[104.1804,2.8928],[104.1794,2.886],[104.1814,2.8816],[104.1896,2.8763],[104.1847,2.875],[104.1846,2.8701],[104.1898,2.8675],[104.1859,2.8642],[104.1929,2.853],[104.1923,2.8433],[104.198,2.8344],[104.1943,2.8318],[104.2005,2.8284],[104.2012,2.8268],[104.1988,2.8246],[104.199,2.8228],[104.2027,2.8214],[104.2049,2.8153],[104.2097,2.8109],[104.2073,2.8083],[104.2075,2.8051],[104.2152,2.7998],[104.2141,2.7976],[104.2066,2.7987],[104.2035,2.7914],[104.2059,2.781],[104.2081,2.7797],[104.21,2.7812],[104.2144,2.7781],[104.2208,2.7763],[104.2203,2.7744],[104.2238,2.7671],[104.2233,2.7637],[104.221,2.7616],[104.2219,2.756],[104.2168,2.7488],[104.2159,2.7448],[104.2214,2.7375],[104.2192,2.7372],[104.2204,2.7339],[104.2174,2.7294],[104.2167,2.7228],[104.2127,2.7197],[104.2051,2.7177],[104.2004,2.7201],[104.1848,2.722],[104.1679,2.7158],[104.1585,2.7171],[104.1511,2.7209],[104.1316,2.7411],[104.1224,2.7455],[104.1204,2.7499],[104.123,2.7617],[104.1208,2.7721],[104.118,2.7767],[104.118,2.7819],[104.1211,2.7881],[104.1279,2.7956],[104.1295,2.8014],[104.1469,2.8111],[104.1475,2.8133],[104.1577,2.818],[104.1618,2.8218],[104.1645,2.8283],[104.163,2.8333],[104.1611,2.8339],[104.1599,2.8465],[104.1492,2.8559],[104.1523,2.859],[104.1499,2.8616],[104.1551,2.8634],[104.148,2.8668],[104.1465,2.8698],[104.1499,2.8746],[104.1549,2.8751],[104.1561,2.8815],[104.1543,2.887],[104.1567,2.8934],[104.1621,2.8936],[104.1696,2.8975],[104.1737,2.8965]]],[[[104.1123,2.9166],[104.1149,2.9122],[104.1115,2.9109],[104.1121,2.9096],[104.1104,2.9087],[104.1052,2.9079],[104.1028,2.9056],[104.0981,2.9101],[104.0983,2.9112],[104.1063,2.9115],[104.1015,2.9193],[104.1042,2.9196],[104.1052,2.9165],[104.1081,2.9146],[104.1123,2.9166]]],[[[102.9309,4.0994],[102.9438,4.1072],[102.9617,4.1137],[102.966,4.1191],[102.9689,4.1191],[102.9701,4.1211],[102.9753,4.1201],[102.9828,4.124],[102.9862,4.1204],[102.9953,4.131],[102.9987,4.1292],[103.0054,4.1291],[103.009,4.1217],[103.0137,4.1204],[103.0175,4.121],[103.0205,4.1193],[103.0241,4.1215],[103.0294,4.1218],[103.0408,4.1176],[103.0452,4.118],[103.0468,4.1161],[103.0524,4.1178],[103.0544,4.12],[103.058,4.1175],[103.0645,4.117],[103.0678,4.1139],[103.0716,4.1143],[103.0746,4.1083],[103.0733,4.1044],[103.0744,4.0982],[103.0766,4.0956],[103.0866,4.0967],[103.0997,4.0892],[103.1033,4.0932],[103.1085,4.0881],[103.1202,4.0843],[103.1205,4.0818],[103.1226,4.0824],[103.1249,4.0784],[103.1236,4.0724],[103.1284,4.0712],[103.1325,4.0658],[103.135,4.0521],[103.1406,4.0561],[103.1445,4.0513],[103.1501,4.0483],[103.156,4.0481],[103.1613,4.0423],[103.1616,4.0382],[103.1651,4.034],[103.1714,4.0311],[103.1793,4.0314],[103.1823,4.0298],[103.186,4.0322],[103.1911,4.0291],[103.1957,4.0409],[103.2004,4.0411],[103.2049,4.0384],[103.2036,4.0286],[103.2089,4.0154],[103.2117,4.0132],[103.2178,4.012],[103.2242,4.0176],[103.2265,4.0218],[103.2319,4.021],[103.2361,4.0172],[103.2388,4.0199],[103.2446,4.0178],[103.2427,4.0086],[103.2448,4.0021],[103.2487,3.9969],[103.2479,3.9942],[103.2494,3.991],[103.2524,3.9916],[103.255,3.9881],[103.2579,3.9878],[103.2693,3.9797],[103.2717,3.9775],[103.2757,3.9679],[103.276,3.9636],[103.2712,3.9608],[103.271,3.9564],[103.2685,3.9542],[103.267,3.9498],[103.27,3.95],[103.2733,3.9442],[103.2734,3.9404],[103.2803,3.9402],[103.3022,3.9008],[103.303,3.8928],[103.3125,3.8823],[103.3157,3.8851],[103.3154,3.8887],[103.3199,3.8941],[103.3184,3.9006],[103.306,3.921],[103.3093,3.9238],[103.3287,3.931],[103.3284,3.9372],[103.3345,3.9469],[103.3364,3.954],[103.336,3.9701],[103.3336,3.9744],[103.3332,3.9792],[103.3345,3.9844],[103.3295,3.9891],[103.3274,3.9942],[103.3249,4.0118],[103.3292,4.0346],[103.3265,4.0499],[103.3177,4.0643],[103.3134,4.0633],[103.3075,4.0654],[103.3047,4.0755],[103.3009,4.0822],[103.3022,4.0887],[103.3053,4.0891],[103.3071,4.0948],[103.3059,4.1032],[103.3081,4.11],[103.3074,4.1174],[103.3095,4.1202],[103.324,4.1266],[103.3247,4.1437],[103.3284,4.1454],[103.3278,4.1521],[103.3252,4.1579],[103.3285,4.1631],[103.3238,4.1652],[103.3211,4.1724],[103.3206,4.1836],[103.3179,4.1881],[103.3195,4.1921],[103.3188,4.1953],[103.3209,4.1969],[103.3264,4.1907],[103.3335,4.1917],[103.3449,4.1791],[103.4003,4.1795],[103.4402,4.1877],[103.4435,4.1855],[103.4451,4.1813],[103.4403,4.1745],[103.435,4.1786],[103.4291,4.1787],[103.4209,4.1772],[103.4149,4.1728],[103.4099,4.1563],[103.408,4.1308],[103.4059,4.1325],[103.3999,4.1255],[103.3962,4.1277],[103.3934,4.1269],[103.3873,4.1211],[103.3849,4.1121],[103.3883,4.0808],[103.3966,4.0565],[103.3961,4.0517],[103.3987,4.0412],[103.412,4.0097],[103.4323,3.9749],[103.4419,3.9649],[103.4413,3.9633],[103.4363,3.962],[103.4359,3.9582],[103.4319,3.9568],[103.4296,3.9608],[103.415,3.9678],[103.4093,3.9687],[103.4024,3.9664],[103.3939,3.9593],[103.377,3.9335],[103.37,3.9195],[103.3676,3.9041],[103.3679,3.8767],[103.3762,3.8413],[103.3759,3.83],[103.3786,3.821],[103.3748,3.8191],[103.3726,3.8158],[103.3742,3.8047],[103.3728,3.8018],[103.3658,3.8085],[103.3555,3.8102],[103.3425,3.8063],[103.342,3.8006],[103.3294,3.7692],[103.3263,3.7562],[103.3258,3.745],[103.3297,3.7292],[103.3418,3.6971],[103.3575,3.6666],[103.3691,3.6503],[103.371,3.645],[103.3675,3.6433],[103.3677,3.6411],[103.3742,3.643],[103.3772,3.637],[103.3902,3.621],[103.3986,3.6031],[103.4025,3.6018],[103.4154,3.5824],[103.4317,3.5653],[103.4479,3.5451],[103.4678,3.5323],[103.4743,3.5194],[103.4745,3.5028],[103.4706,3.465],[103.4656,3.4597],[103.4414,3.4486],[103.4283,3.3994],[103.4251,3.3807],[103.4237,3.3788],[103.423,3.3808],[103.4225,3.3779],[103.422,3.3609],[103.4253,3.3254],[103.4351,3.2712],[103.4395,3.255],[103.4451,3.2061],[103.4415,3.1775],[103.442,3.1617],[103.447,3.131],[103.4469,3.1279],[103.4428,3.1272],[103.4422,3.1256],[103.4411,3.1015],[103.4381,3.0907],[103.4371,3.0745],[103.4322,3.0543],[103.4322,3.0511],[103.4351,3.0546],[103.4312,3.0383],[103.431,3.0103],[103.4286,3.003],[103.4299,2.9841],[103.4279,2.9635],[103.4298,2.9646],[103.4272,2.9502],[103.4297,2.9344],[103.4369,2.9084],[103.4512,2.8683],[103.4783,2.8254],[103.4955,2.8078],[103.5196,2.7755],[103.5271,2.7694],[103.5451,2.748],[103.554,2.7423],[103.5553,2.7391],[103.5657,2.7281],[103.6129,2.6847],[103.63,2.6637],[103.632,2.6587],[103.6176,2.6522],[103.614,2.653],[103.6096,2.6576],[103.603,2.6609],[103.5951,2.6611],[103.5894,2.6567],[103.5873,2.6504],[103.593,2.6337],[103.595,2.6319],[103.5999,2.6311],[103.6034,2.6336],[103.6036,2.6356],[103.5995,2.6428],[103.5995,2.6462],[103.6037,2.6497],[103.6107,2.6512],[103.6133,2.6444],[103.6105,2.6329],[103.6184,2.6303],[103.6206,2.6278],[103.62,2.625],[103.6133,2.6219],[103.6118,2.6192],[103.613,2.6151],[103.6236,2.6073],[103.6246,2.6033],[103.6127,2.5989],[103.6102,2.5935],[103.6122,2.5906],[103.6208,2.5898],[103.6232,2.5861],[103.6201,2.5826],[103.6099,2.5855],[103.6054,2.5846],[103.5988,2.5772],[103.5972,2.5695],[103.5977,2.5667],[103.6013,2.5647],[103.6039,2.5666],[103.6069,2.5725],[103.6095,2.5749],[103.6121,2.5746],[103.6142,2.5724],[103.6143,2.5639],[103.6164,2.5583],[103.6149,2.5541],[103.6128,2.5535],[103.609,2.5621],[103.6048,2.5603],[103.5925,2.5484],[103.5922,2.5471],[103.5952,2.5447],[103.5897,2.5342],[103.5917,2.5273],[103.5943,2.5261],[103.6026,2.5316],[103.6072,2.5324],[103.6129,2.5304],[103.6213,2.5338],[103.6234,2.5328],[103.6226,2.5298],[103.6185,2.5263],[103.6162,2.5177],[103.6254,2.5108],[103.6294,2.5056],[103.6296,2.491],[103.638,2.4874],[103.6288,2.4679],[103.624,2.4631],[103.6144,2.4631],[103.6091,2.4708],[103.6077,2.468],[103.6089,2.4586],[103.6077,2.4578],[103.4717,2.5266],[103.4603,2.5404],[103.4526,2.5467],[103.4387,2.552],[103.4182,2.5521],[103.3551,2.5904],[103.2889,2.578],[103.1483,2.5203],[103.0773,2.5534],[102.9717,2.5939],[102.9239,2.646],[102.7943,2.8035],[102.6993,2.8329],[102.6951,2.8321],[102.6974,2.8353],[102.6924,2.8429],[102.6947,2.8449],[102.6941,2.8481],[102.6961,2.8523],[102.6939,2.8537],[102.6945,2.8582],[102.6929,2.8597],[102.6923,2.8772],[102.6904,2.8776],[102.6897,2.8806],[102.6874,2.8788],[102.6881,2.8836],[102.6844,2.8857],[102.6846,2.8886],[102.6806,2.8921],[102.6798,2.8956],[102.6753,2.8976],[102.6741,2.8936],[102.6663,2.8854],[102.4663,3.0195],[102.389,3.1185],[102.2925,3.1374],[102.159,3.1791],[102.1552,3.1844],[102.1515,3.1856],[102.1507,3.1898],[102.1418,3.1984],[102.1275,3.1942],[102.1219,3.1997],[102.1153,3.1986],[102.1153,3.1907],[102.1131,3.189],[102.1069,3.193],[102.0967,3.1927],[102.0843,3.1826],[102.0805,3.1832],[102.0777,3.1811],[102.0752,3.1757],[102.0745,3.1669],[102.0693,3.172],[102.0594,3.1676],[102.0567,3.1689],[102.0548,3.1726],[102.0557,3.1804],[102.0522,3.1856],[102.0514,3.1907],[102.0549,3.1978],[102.0518,3.2025],[102.0508,3.2123],[102.0443,3.2263],[102.039,3.2287],[102.0322,3.2283],[102.0279,3.2316],[102.0231,3.2301],[102.0189,3.2308],[102.0129,3.2275],[102.0093,3.2273],[102.0006,3.2312],[101.9927,3.2383],[101.9853,3.2376],[101.9746,3.2459],[101.9775,3.2496],[101.9778,3.254],[101.9736,3.2626],[101.9725,3.2739],[101.9655,3.276],[101.9565,3.2734],[101.9504,3.2834],[101.9393,3.2902],[101.9359,3.2863],[101.933,3.2754],[101.9274,3.2701],[101.923,3.2691],[101.9173,3.2634],[101.9127,3.2645],[101.9084,3.2633],[101.9058,3.268],[101.8963,3.2709],[101.892,3.2707],[101.8887,3.2666],[101.8836,3.2657],[101.8753,3.2711],[101.8737,3.2748],[101.8578,3.2755],[101.8529,3.2798],[101.8528,3.2829],[101.8475,3.2899],[101.8456,3.2912],[101.8381,3.2916],[101.8239,3.2994],[101.8058,3.3201],[101.8065,3.3249],[101.8006,3.3282],[101.7965,3.3361],[101.7869,3.339],[101.7807,3.3431],[101.7794,3.3465],[101.7811,3.3534],[101.7774,3.3619],[101.7696,3.3654],[101.7571,3.3752],[101.7638,3.3867],[101.7622,3.3999],[101.7701,3.4027],[101.7778,3.4093],[101.7802,3.4154],[101.7876,3.4217],[101.7899,3.426],[101.7833,3.432],[101.781,3.445],[101.7768,3.4539],[101.7731,3.47],[101.7653,3.4791],[101.7634,3.4904],[101.7602,3.4948],[101.7607,3.5083],[101.764,3.514],[101.7688,3.5182],[101.7798,3.5433],[101.7863,3.5482],[101.7897,3.5476],[101.8039,3.5532],[101.8078,3.5741],[101.8064,3.5784],[101.8072,3.5869],[101.8103,3.5945],[101.8134,3.5978],[101.8142,3.606],[101.8096,3.6083],[101.8077,3.6125],[101.7994,3.6183],[101.7954,3.6277],[101.7857,3.6327],[101.7833,3.6383],[101.7844,3.6458],[101.7828,3.6528],[101.7783,3.6563],[101.7724,3.6645],[101.767,3.668],[101.7699,3.6745],[101.7665,3.6799],[101.7661,3.6846],[101.7546,3.6878],[101.7473,3.6968],[101.7397,3.7007],[101.7363,3.7085],[101.7367,3.7127],[101.7239,3.7137],[101.7195,3.7102],[101.7146,3.7108],[101.7086,3.7141],[101.7064,3.7119],[101.7011,3.7135],[101.6893,3.7115],[101.6856,3.7134],[101.6773,3.7233],[101.6709,3.7238],[101.6539,3.729],[101.6514,3.7377],[101.6435,3.7461],[101.6415,3.7519],[101.6367,3.7561],[101.6268,3.7706],[101.6251,3.7745],[101.6265,3.7785],[101.6239,3.7797],[101.6237,3.783],[101.616,3.7912],[101.6135,3.7961],[101.6029,3.7971],[101.5928,3.8032],[101.5982,3.8143],[101.5976,3.8251],[101.596,3.8305],[101.5907,3.8364],[101.5975,3.8427],[101.6017,3.8442],[101.6028,3.8491],[101.5993,3.857],[101.6056,3.876],[101.6011,3.8827],[101.5804,3.8984],[101.5772,3.9047],[101.5799,3.9095],[101.5728,3.916],[101.5786,3.9241],[101.5752,3.9303],[101.5761,3.9354],[101.572,3.944],[101.5746,3.9437],[101.5784,3.9469],[101.5734,3.9516],[101.5791,3.9584],[101.5761,3.9623],[101.5773,3.9651],[101.574,3.9667],[101.5748,3.9815],[101.5705,3.9893],[101.5733,4],[101.5633,4.0041],[101.5619,4.0096],[101.5581,4.0121],[101.5553,4.0278],[101.5564,4.0312],[101.5616,4.0353],[101.5615,4.0394],[101.5651,4.044],[101.5708,4.0579],[101.5761,4.063],[101.5763,4.0684],[101.5806,4.0739],[101.5771,4.0798],[101.5778,4.0864],[101.5734,4.0967],[101.5682,4.0961],[101.5656,4.0991],[101.5629,4.0993],[101.5597,4.102],[101.5593,4.108],[101.54,4.1186],[101.538,4.1222],[101.534,4.1234],[101.533,4.1261],[101.5265,4.126],[101.5176,4.1186],[101.5143,4.1178],[101.5121,4.125],[101.5048,4.1319],[101.5018,4.1523],[101.4958,4.1533],[101.4939,4.1613],[101.4969,4.1641],[101.4955,4.1697],[101.498,4.175],[101.4956,4.1847],[101.498,4.1874],[101.5019,4.1875],[101.5034,4.1896],[101.5049,4.1975],[101.5085,4.1993],[101.5074,4.2058],[101.5022,4.207],[101.4963,4.2058],[101.4912,4.208],[101.4901,4.2107],[101.4865,4.2085],[101.4757,4.2104],[101.468,4.2151],[101.4621,4.2135],[101.4567,4.2194],[101.4532,4.22],[101.4506,4.2231],[101.4511,4.2389],[101.4523,4.2414],[101.4608,4.2461],[101.4634,4.2547],[101.4552,4.2601],[101.4503,4.2661],[101.4448,4.2693],[101.4433,4.2725],[101.4467,4.2852],[101.4464,4.2916],[101.4498,4.3006],[101.4471,4.3052],[101.4483,4.3123],[101.4438,4.3172],[101.4417,4.3303],[101.4312,4.3367],[101.4235,4.3389],[101.4203,4.343],[101.4221,4.3475],[101.4279,4.3496],[101.4326,4.3546],[101.4317,4.3584],[101.4339,4.3611],[101.4342,4.3658],[101.437,4.3722],[101.4391,4.375],[101.443,4.3765],[101.4376,4.3837],[101.4367,4.3893],[101.4186,4.3919],[101.4098,4.3899],[101.4074,4.3914],[101.407,4.3947],[101.4001,4.4012],[101.3958,4.4013],[101.3906,4.4076],[101.3864,4.4056],[101.3806,4.4065],[101.3697,4.403],[101.3665,4.3975],[101.3574,4.3947],[101.3542,4.4023],[101.3551,4.4064],[101.3492,4.4089],[101.3481,4.4111],[101.3527,4.4187],[101.3518,4.4257],[101.3403,4.4321],[101.3328,4.4298],[101.3306,4.4319],[101.3307,4.4458],[101.3323,4.4469],[101.335,4.4457],[101.3355,4.4488],[101.338,4.4512],[101.3461,4.4527],[101.3527,4.4593],[101.3562,4.4761],[101.3658,4.4851],[101.3586,4.4954],[101.3675,4.498],[101.3756,4.4978],[101.3802,4.5039],[101.3844,4.506],[101.3825,4.5173],[101.3795,4.5241],[101.3716,4.5288],[101.3642,4.5293],[101.3573,4.5398],[101.357,4.5447],[101.354,4.5483],[101.3527,4.5535],[101.3548,4.5634],[101.3544,4.5739],[101.3486,4.5922],[101.3551,4.594],[101.3605,4.6006],[101.3647,4.6031],[101.3659,4.6071],[101.3714,4.6089],[101.3734,4.6138],[101.3844,4.6105],[101.3978,4.6148],[101.4016,4.6188],[101.4074,4.6153],[101.4135,4.6147],[101.4163,4.6094],[101.4258,4.6068],[101.4328,4.5958],[101.4448,4.5883],[101.4478,4.5778],[101.4523,4.5754],[101.4607,4.5748],[101.465,4.5774],[101.4714,4.5739],[101.4773,4.5763],[101.4762,4.5833],[101.478,4.594],[101.4807,4.6009],[101.4834,4.6034],[101.4901,4.6003],[101.4956,4.6027],[101.5016,4.6139],[101.5072,4.6078],[101.5093,4.6091],[101.5167,4.6084],[101.5199,4.6133],[101.5222,4.6124],[101.5246,4.607],[101.5336,4.6043],[101.5441,4.594],[101.5461,4.5845],[101.5503,4.5773],[101.5537,4.5764],[101.5591,4.5791],[101.5673,4.5775],[101.5746,4.5709],[101.5743,4.5678],[101.5776,4.5647],[101.5849,4.563],[101.5853,4.5569],[101.5898,4.5524],[101.5919,4.5568],[101.5949,4.5591],[101.6119,4.5615],[101.6139,4.5606],[101.6178,4.5501],[101.6212,4.5465],[101.6238,4.5466],[101.6363,4.5582],[101.6412,4.5588],[101.6451,4.5566],[101.6518,4.5573],[101.6618,4.5642],[101.6677,4.5722],[101.6685,4.5828],[101.673,4.5937],[101.6785,4.5938],[101.6903,4.6],[101.7094,4.6042],[101.7124,4.6081],[101.7171,4.6072],[101.7209,4.6098],[101.7227,4.6091],[101.7257,4.6117],[101.7251,4.6186],[101.7281,4.6222],[101.7321,4.6226],[101.7409,4.6136],[101.7476,4.6127],[101.7523,4.6103],[101.7545,4.6122],[101.7524,4.621],[101.7534,4.6221],[101.7576,4.6247],[101.7624,4.6221],[101.764,4.6226],[101.7675,4.6358],[101.7683,4.6542],[101.7739,4.6636],[101.7731,4.6735],[101.7699,4.6756],[101.7689,4.6793],[101.7713,4.6922],[101.7695,4.6956],[101.7716,4.701],[101.7755,4.7038],[101.7764,4.7064],[101.7733,4.7098],[101.7751,4.7165],[101.7731,4.7247],[101.774,4.7415],[101.7766,4.7526],[101.7801,4.7588],[101.7956,4.7567],[101.7968,4.7577],[101.7962,4.762],[101.8002,4.763],[101.8052,4.7596],[101.8147,4.7593],[101.8164,4.7547],[101.8204,4.7507],[101.8191,4.7264],[101.8197,4.7231],[101.8236,4.7182],[101.8296,4.7157],[101.8358,4.7212],[101.8415,4.7196],[101.8465,4.7046],[101.845,4.6962],[101.847,4.687],[101.8488,4.685],[101.8543,4.6847],[101.8604,4.6923],[101.8622,4.6925],[101.8639,4.6847],[101.8678,4.6794],[101.8784,4.6777],[101.884,4.6752],[101.8886,4.6709],[101.8871,4.6649],[101.8932,4.6619],[101.8916,4.6555],[101.8936,4.6488],[101.8899,4.6431],[101.8895,4.6359],[101.8931,4.6284],[101.895,4.6161],[101.8968,4.6128],[101.903,4.6086],[101.9125,4.611],[101.9155,4.632],[101.9223,4.6417],[101.924,4.6512],[101.9268,4.6567],[101.9376,4.6584],[101.9427,4.6662],[101.9448,4.6751],[101.9432,4.6805],[101.9465,4.6886],[101.9524,4.7133],[101.9505,4.7225],[101.9525,4.7327],[101.949,4.7449],[101.9496,4.753],[101.9515,4.7573],[101.964,4.7636],[101.9654,4.7608],[101.9683,4.7598],[101.9702,4.7491],[101.9731,4.7489],[101.9803,4.7426],[101.9825,4.743],[101.9853,4.7405],[101.9859,4.7447],[101.9839,4.7483],[101.9879,4.7517],[101.9871,4.7598],[101.9903,4.7588],[101.9922,4.7609],[101.9953,4.759],[102.0006,4.7622],[102.0019,4.759],[102.0008,4.7517],[102.0036,4.7474],[102.0085,4.7444],[102.0142,4.7356],[102.0201,4.7327],[102.0224,4.74],[102.0278,4.7408],[102.0309,4.7393],[102.0347,4.7312],[102.0372,4.7299],[102.04,4.7309],[102.042,4.7299],[102.0427,4.7261],[102.0462,4.7269],[102.0489,4.7248],[102.0509,4.7285],[102.0497,4.7346],[102.057,4.7418],[102.0582,4.7423],[102.062,4.7389],[102.0668,4.74],[102.081,4.7474],[102.0858,4.7532],[102.089,4.7532],[102.0946,4.7579],[102.1122,4.7618],[102.1154,4.7611],[102.1205,4.7486],[102.1273,4.7378],[102.1235,4.7223],[102.1298,4.7135],[102.1409,4.7059],[102.1456,4.7047],[102.1597,4.6925],[102.1639,4.6856],[102.1699,4.6818],[102.1751,4.6732],[102.1751,4.6661],[102.173,4.6629],[102.1748,4.6582],[102.1853,4.6539],[102.1917,4.6482],[102.1979,4.6384],[102.2035,4.6353],[102.2103,4.6344],[102.2184,4.6287],[102.2238,4.6278],[102.2292,4.6327],[102.2335,4.633],[102.2299,4.6468],[102.2327,4.6515],[102.2346,4.6505],[102.2402,4.6516],[102.2492,4.6564],[102.2626,4.6574],[102.2713,4.6628],[102.2865,4.6553],[102.2985,4.6464],[102.3081,4.6415],[102.3142,4.6401],[102.3166,4.6371],[102.3227,4.6387],[102.3342,4.6361],[102.3385,4.6418],[102.3402,4.6391],[102.3449,4.6398],[102.346,4.6425],[102.3441,4.6463],[102.3481,4.6544],[102.3648,4.6674],[102.3672,4.6761],[102.3724,4.6807],[102.373,4.69],[102.3631,4.6958],[102.3623,4.7009],[102.3674,4.708],[102.3768,4.7092],[102.3806,4.7123],[102.3979,4.712],[102.4032,4.7105],[102.4095,4.7153],[102.4209,4.7134],[102.429,4.7097],[102.4367,4.7116],[102.449,4.7118],[102.4602,4.7042],[102.4579,4.6997],[102.4821,4.685],[102.5022,4.6675],[102.5058,4.669],[102.5129,4.6673],[102.5192,4.6741],[102.5285,4.676],[102.5306,4.6828],[102.5363,4.686],[102.5426,4.6936],[102.5461,4.707],[102.549,4.7095],[102.5528,4.7088],[102.5708,4.6904],[102.5826,4.6952],[102.5897,4.6893],[102.5923,4.6894],[102.5965,4.6862],[102.6037,4.6871],[102.6031,4.6952],[102.6056,4.6999],[102.6025,4.7161],[102.6023,4.7271],[102.6,4.7331],[102.5957,4.7378],[102.5993,4.7408],[102.5981,4.7445],[102.6004,4.7471],[102.6012,4.7517],[102.6059,4.7543],[102.6049,4.7617],[102.6008,4.7679],[102.6076,4.7723],[102.609,4.7769],[102.6114,4.7791],[102.6289,4.7711],[102.6354,4.7642],[102.6459,4.7608],[102.6512,4.761],[102.6625,4.7549],[102.6616,4.7464],[102.6678,4.7367],[102.6749,4.7305],[102.6831,4.7149],[102.6914,4.7129],[102.6991,4.7154],[102.7088,4.7049],[102.7138,4.6949],[102.7199,4.6942],[102.732,4.6838],[102.7443,4.6882],[102.7463,4.6843],[102.7622,4.6748],[102.7672,4.6729],[102.7715,4.677],[102.777,4.6704],[102.7902,4.6765],[102.8064,4.6771],[102.8231,4.6821],[102.8301,4.6802],[102.8408,4.68],[102.8415,4.6711],[102.849,4.6679],[102.8564,4.658],[102.8613,4.6564],[102.8613,4.6522],[102.868,4.6451],[102.8705,4.6372],[102.8656,4.628],[102.877,4.6176],[102.8823,4.6088],[102.8782,4.6052],[102.8611,4.6041],[102.8589,4.6014],[102.8593,4.5964],[102.8699,4.5888],[102.8726,4.5817],[102.868,4.5765],[102.8687,4.5714],[102.8651,4.5618],[102.8601,4.5606],[102.8523,4.5629],[102.8432,4.5586],[102.84,4.5591],[102.8382,4.5567],[102.8403,4.5529],[102.8376,4.5328],[102.8409,4.5303],[102.8478,4.5187],[102.8461,4.5033],[102.8474,4.4977],[102.8486,4.4965],[102.8514,4.497],[102.8519,4.493],[102.857,4.4944],[102.865,4.4871],[102.8707,4.486],[102.8755,4.4828],[102.8745,4.4697],[102.8798,4.4639],[102.8907,4.4698],[102.8998,4.4665],[102.9129,4.4698],[102.915,4.4636],[102.9188,4.4676],[102.9298,4.4681],[102.9347,4.464],[102.9373,4.4592],[102.9424,4.4559],[102.944,4.451],[102.9512,4.4519],[102.9562,4.4556],[102.9571,4.4569],[102.954,4.4686],[102.9571,4.4727],[102.9628,4.4714],[102.9677,4.4746],[102.9695,4.4776],[102.9692,4.4809],[102.973,4.4815],[102.9799,4.4762],[102.9792,4.4714],[102.984,4.4697],[102.9843,4.4668],[102.9889,4.4638],[102.9895,4.4549],[102.9959,4.4509],[103,4.4509],[103.0122,4.4342],[103.0105,4.4202],[103.0137,4.4115],[103.0193,4.4084],[103.0267,4.4092],[103.028,4.4062],[103.0258,4.3963],[103.0204,4.3931],[103.0165,4.3872],[103.0109,4.3864],[103.0068,4.3773],[103.0087,4.3738],[103.008,4.3668],[103.0104,4.3545],[103.0077,4.3447],[103.011,4.3411],[103.0172,4.3383],[103.0176,4.3348],[103.0089,4.3301],[103.0024,4.3324],[102.9983,4.3317],[102.9931,4.3352],[102.9869,4.335],[102.9834,4.3372],[102.9703,4.3304],[102.9596,4.3192],[102.9581,4.3021],[102.9547,4.2903],[102.9478,4.2846],[102.9419,4.2879],[102.9387,4.2876],[102.9312,4.2785],[102.9329,4.2713],[102.9304,4.2662],[102.9298,4.255],[102.9354,4.245],[102.9295,4.2358],[102.9225,4.2334],[102.9223,4.2246],[102.9203,4.2206],[102.9137,4.2149],[102.914,4.208],[102.9208,4.1948],[102.9222,4.1833],[102.9195,4.1779],[102.9216,4.1578],[102.9198,4.1544],[102.9031,4.1471],[102.8926,4.1372],[102.8929,4.1331],[102.8974,4.1301],[102.9076,4.1126],[102.9123,4.111],[102.9188,4.1023],[102.9309,4.0994]]]]}}
